{"type": "FeatureCollection", "features": [{"type": "Feature", "properties": {"order": "2025-123", "date": "Apr 10, 2025", "acres": 1688, "wells": 4, "area": "Union & Warren Twp (Tuscarawas) + Orange Twp (Carroll)", "approx": false, "src": "ODNR Unitization GIS unit polygon", "name": "Shula TWR A", "clat": 40.4778, "clon": -81.27288}, "geometry": {"type": "Polygon", "coordinates": [[[-81.25346604361637, 40.458925331443375], [-81.2640760338045, 40.45429705122855], [-81.30203025483554, 40.506151808565924], [-81.2913579523886, 40.51070622041312], [-81.25346604361637, 40.458925331443375]]]}}, {"type": "Feature", "properties": {"order": "2025-425", "date": "Oct 23, 2025", "acres": 1241, "wells": 3, "area": "Warren Twp (Tuscarawas)", "approx": false, "src": "ODNR Unitization GIS unit polygon", "name": "Shula TWR B", "clat": 40.52231, "clon": -81.30337}, "geometry": {"type": "Polygon", "coordinates": [[[-81.29628375526154, 40.51742704221857], [-81.2940443769567, 40.514371608125465], [-81.29135795240438, 40.5107062195128], [-81.30203025485122, 40.5061518076656], [-81.32995266586164, 40.54424110450687], [-81.31927616492713, 40.54879812177831], [-81.2976969319959, 40.51935519552695], [-81.29628375526154, 40.51742704221857]]]}}, {"type": "Feature", "properties": {"order": "2026-63", "date": "Feb 2, 2026", "acres": 1205, "wells": 3, "area": "Orange Twp (Carroll) + Union & Warren Twp (Tuscarawas)", "approx": false, "src": "ODNR Unitization GIS unit polygon", "name": "Lambeau TWR A", "clat": 40.46294, "clon": -81.27703}, "geometry": {"type": "Polygon", "coordinates": [[[-81.30226178433324, 40.49015797052868], [-81.29316106714442, 40.494042682814616], [-81.26407603382064, 40.45429705032819], [-81.26504652564421, 40.453879154872276], [-81.26927346337028, 40.45206136521258], [-81.26932469951441, 40.450628600562865], [-81.26233990779659, 40.441308630917746], [-81.2655212371721, 40.43995084540072], [-81.30226178433324, 40.49015797052868]]]}}, {"type": "Feature", "properties": {"name": "Ditka TWR A", "order": "2026-82", "date": "Feb 25, 2026", "acres": 1412, "wells": 3, "area": "Warren Twp (Tuscarawas) + Orange Twp (Carroll)", "approx": false, "src": "Assembled from the order\u2019s parcels (Tuscarawas + Carroll auditor GIS)", "parcels": 91, "clat": 40.47251, "clon": -81.25675}, "geometry": {"type": "MultiPolygon", "coordinates": [[[[-81.26775611590516, 40.49886739389704], [-81.2732763003524, 40.49896548243513], [-81.27343820184795, 40.49492678144566], [-81.27308240573285, 40.49491832139376], [-81.27311501895952, 40.49410473083585], [-81.27347081023353, 40.49411321780012], [-81.27351786725342, 40.49293876623462], [-81.27352332550204, 40.49280250006654], [-81.27201661387244, 40.49277497543086], [-81.27064609952069, 40.49274985774474], [-81.26938489533292, 40.49272672355854], [-81.26801859112275, 40.49270156474577], [-81.26775611590516, 40.49886739389704]]], [[[-81.27308240573285, 40.49491832139376], [-81.27343820184795, 40.49492678144566], [-81.27347081023353, 40.49411321780012], [-81.27311501895952, 40.49410473083585], [-81.27308240573285, 40.49491832139376]]], [[[-81.27347081023353, 40.49411321780012], [-81.27343820184795, 40.49492678144566], [-81.2732763003524, 40.49896548243513], [-81.27731098630066, 40.499036983615355], [-81.27933628354319, 40.49909402716559], [-81.28033535684713, 40.496908460515684], [-81.27953153700396, 40.49609150880025], [-81.27887045615593, 40.4954196483565], [-81.27818697345427, 40.494724979674615], [-81.28007013951967, 40.493259260885175], [-81.28014572188259, 40.493200415885696], [-81.27985077251007, 40.492965905504455], [-81.27971825462178, 40.492856802088205], [-81.27964633387013, 40.49291263184882], [-81.27813234127213, 40.49409083919788], [-81.27750045295781, 40.49296866570204], [-81.27351786725342, 40.49293876623462], [-81.27347081023353, 40.49411321780012]]], [[[-81.278587057245, 40.492129234785764], [-81.27750045295781, 40.49296866570204], [-81.27813234127213, 40.49409083919788], [-81.27964633387013, 40.49291263184882], [-81.27971825462178, 40.492856802088205], [-81.27930529636907, 40.49251664524457], [-81.2792320321926, 40.49246501479891], [-81.27871590112433, 40.49210004103268], [-81.27866325443442, 40.49207044507502], [-81.278587057245, 40.492129234785764]]], [[[-81.27352332550204, 40.49280250006654], [-81.27351786725342, 40.49293876623462], [-81.27750045295781, 40.49296866570204], [-81.278587057245, 40.492129234785764], [-81.27866325443442, 40.49207044507502], [-81.2785332049941, 40.49199733014286], [-81.2778610285624, 40.49162319486691], [-81.27755824041049, 40.4914546412728], [-81.27755482249464, 40.49155463893479], [-81.27755237376955, 40.491625300469586], [-81.27446876997051, 40.49157070902674], [-81.27357334718809, 40.491554867144096], [-81.27352332550204, 40.49280250006654]]], [[[-81.27453487876367, 40.489455831326865], [-81.27453230556434, 40.48953898249648], [-81.27452961243546, 40.48962473973753], [-81.27446876997051, 40.49157070902674], [-81.27755237376955, 40.491625300469586], [-81.27755482249464, 40.49155463893479], [-81.27755824041049, 40.4914546412728], [-81.2775619417756, 40.491347043429656], [-81.27761925956864, 40.489944550304386], [-81.27773590408383, 40.48587906680987], [-81.27777932724756, 40.48438618795535], [-81.2762010461662, 40.48434853439488], [-81.2746954353051, 40.48432034063797], [-81.27453487876367, 40.489455831326865]]], [[[-81.27201661387244, 40.49277497543086], [-81.27352332550204, 40.49280250006654], [-81.27357334718809, 40.491554867144096], [-81.27446876997051, 40.49157070902674], [-81.27452961243546, 40.48962473973753], [-81.27453230556434, 40.48953898249648], [-81.27453487876367, 40.489455831326865], [-81.2746954353051, 40.48432034063797], [-81.2745484041419, 40.4843175554318], [-81.2726117281632, 40.48428127690729], [-81.2715589306429, 40.4842615311123], [-81.27163528059631, 40.48889495247835], [-81.27163636537438, 40.48896090286533], [-81.272133043826, 40.48905480142988], [-81.27212978696087, 40.48915823219333], [-81.27205519808857, 40.49152711003504], [-81.27201661387244, 40.49277497543086]]], [[[-81.27076664874527, 40.488900413514294], [-81.27064609952069, 40.49274985774474], [-81.27201661387244, 40.49277497543086], [-81.27205519808857, 40.49152711003504], [-81.27212978696087, 40.48915823219333], [-81.272133043826, 40.48905480142988], [-81.27163636537438, 40.48896090286533], [-81.27076988410889, 40.48879711132761], [-81.27076664874527, 40.488900413514294]]], [[[-81.26944773923749, 40.488651071570466], [-81.26938489533292, 40.49272672355854], [-81.27064609952069, 40.49274985774474], [-81.27076664874527, 40.488900413514294], [-81.27076988410889, 40.48879711132761], [-81.2694493366476, 40.48854746715013], [-81.26944773923749, 40.488651071570466]]], [[[-81.26811340663293, 40.488420459652126], [-81.26806649775303, 40.491457203964615], [-81.26801859112275, 40.49270156474577], [-81.26938489533292, 40.49272672355854], [-81.26944773923749, 40.488651071570466], [-81.2694493366476, 40.48854746715013], [-81.2688430623281, 40.48843282895225], [-81.26817826233872, 40.48832754899486], [-81.2681149211504, 40.488321128784754], [-81.26811340663293, 40.488420459652126]]], [[[-81.27076988410889, 40.48879711132761], [-81.27163636537438, 40.48896090286533], [-81.27163528059631, 40.48889495247835], [-81.2715589306429, 40.4842615311123], [-81.27248990064749, 40.48222867237148], [-81.27256107452172, 40.482073183101605], [-81.27259688575512, 40.481994973428606], [-81.27179687551481, 40.48170167290288], [-81.27137946395956, 40.48154864224725], [-81.27001839425625, 40.48106442447873], [-81.26986515291442, 40.48190543767905], [-81.2699299861084, 40.48197864938743], [-81.27027486583016, 40.482368182267734], [-81.26930635271628, 40.48347953380879], [-81.26817857735406, 40.484198083759836], [-81.2681160071135, 40.488252676335804], [-81.2681149211504, 40.488321128784754], [-81.26817826233872, 40.48832754899486], [-81.2688430623281, 40.48843282895225], [-81.2694493366476, 40.48854746715013], [-81.27076988410889, 40.48879711132761]]], [[[-81.27256107452172, 40.482073183101605], [-81.27248990064749, 40.48222867237148], [-81.2715589306429, 40.4842615311123], [-81.2726117281632, 40.48428127690729], [-81.27385410363495, 40.48254573383885], [-81.273905912583, 40.4824733506445], [-81.27259688575512, 40.481994973428606], [-81.27256107452172, 40.482073183101605]]], [[[-81.26822559435419, 40.482791345559654], [-81.26817857735406, 40.484198083759836], [-81.26930635271628, 40.48347953380879], [-81.27027486583016, 40.482368182267734], [-81.2699299861084, 40.48197864938743], [-81.26986515291442, 40.48190543767905], [-81.26927591208167, 40.48223782040216], [-81.26822559435419, 40.482791345559654]]], [[[-81.27001839425625, 40.48106442447873], [-81.27026344211966, 40.48082494354938], [-81.27054872490588, 40.48060840500148], [-81.27171430903044, 40.47974288514621], [-81.27358130358549, 40.47808128489332], [-81.27397597397058, 40.47771738691533], [-81.27417223535387, 40.477414790334244], [-81.27435029662043, 40.476999208032176], [-81.26837513024665, 40.47683108445591], [-81.26822559435419, 40.482791345559654], [-81.26927591208167, 40.48223782040216], [-81.26950558136869, 40.48191313033055], [-81.26993319210706, 40.48116572348099], [-81.27001839425625, 40.48106442447873]]], [[[-81.2662774160229, 40.4881488292003], [-81.2681026657774, 40.4883355661187], [-81.2681025903889, 40.4883633591414], [-81.2680941001062, 40.4914897777942], [-81.2662227180336, 40.4914427636173], [-81.2662768088661, 40.4881854175701], [-81.2662774160229, 40.4881488292003]]], [[[-81.2658133885614, 40.4841386834213], [-81.2658131596335, 40.4841637629571], [-81.2658057462803, 40.4849752964736], [-81.2645390491023, 40.4848748698984], [-81.264414569416, 40.4848649996645], [-81.2657265726144, 40.4841367230418], [-81.2658133885614, 40.4841386834213]]], [[[-81.2590814733277, 40.466349469421], [-81.2638391665697, 40.466434031597], [-81.2637393339473, 40.4700348053438], [-81.258971778141, 40.4699652456139], [-81.2590273892076, 40.4681322207192], [-81.2590745458855, 40.4665778082604], [-81.2590814733277, 40.466349469421]]], [[[-81.2641044621981, 40.4851394884906], [-81.2640089666879, 40.4858943290767], [-81.2637303082554, 40.4860599560582], [-81.2637175783401, 40.486241335745], [-81.263319473053, 40.486235404873], [-81.2633313647451, 40.4856121370454], [-81.2633334642922, 40.4855020741278], [-81.2633349583212, 40.4854237253168], [-81.2640067646331, 40.4850068770279], [-81.264477378967, 40.4847266450113], [-81.2648231861223, 40.4845207280894], [-81.2655619133242, 40.4841330044364], [-81.2656814738891, 40.484135704291], [-81.2657265726144, 40.4841367230418], [-81.264414569416, 40.4848649996645], [-81.2641189867712, 40.4850246785317], [-81.2641044621981, 40.4851394884906]]], [[[-81.2636034059709, 40.4945498999764], [-81.2644809477381, 40.4942798097528], [-81.2679634643165, 40.4943772625641], [-81.2679273483031, 40.495123445569], [-81.2653287803547, 40.4953184225741], [-81.2652765831292, 40.4953223382013], [-81.2652577158664, 40.4952618866441], [-81.2650935130509, 40.4951249674639], [-81.2648900259783, 40.4950337533466], [-81.2644703154015, 40.4948649552869], [-81.2642267482138, 40.4947743917383], [-81.2639351757167, 40.4946921678587], [-81.2636843441113, 40.4946101698097], [-81.2635634240819, 40.4945622050267], [-81.2636034059709, 40.4945498999764]]], [[[-81.2620574730266, 40.484053799925], [-81.2628036354392, 40.484070673406], [-81.2628006442175, 40.4841332645506], [-81.2627986316844, 40.4841753676498], [-81.2606661902071, 40.484115930236], [-81.2606369599431, 40.4847271124059], [-81.2598214545384, 40.4847043706795], [-81.2598549595781, 40.4840039659249], [-81.2620574730266, 40.484053799925]]], [[[-81.2633427653328, 40.4850145385454], [-81.2633354588331, 40.4853974742773], [-81.2633349583212, 40.4854237253168], [-81.2633334642922, 40.4855020741278], [-81.262316182885, 40.4861397968784], [-81.2618758543346, 40.4864158272665], [-81.2618766879656, 40.4863015932556], [-81.2618863804693, 40.484973956813], [-81.2633427653328, 40.4850145385454]]], [[[-81.2653090505162, 40.491419797852], [-81.2642308970107, 40.4913926893181], [-81.264303440486, 40.4879797837334], [-81.2643041389413, 40.4879469151064], [-81.2653804576754, 40.4880570529267], [-81.2653797890678, 40.4880885312841], [-81.2653090505162, 40.491419797852]]], [[[-81.2662768088661, 40.4881854175701], [-81.2662227180336, 40.4914427636173], [-81.2653090505162, 40.491419797852], [-81.2653797890678, 40.4880885312841], [-81.2653804576754, 40.4880570529267], [-81.2662774160229, 40.4881488292003], [-81.2662768088661, 40.4881854175701]]], [[[-81.2618863804693, 40.484973956813], [-81.2618766879656, 40.4863015932556], [-81.2618758543346, 40.4864158272665], [-81.2613324089052, 40.4867564937793], [-81.2612209467867, 40.4868215498259], [-81.2605616027172, 40.4872063733718], [-81.2605651548069, 40.4870941898894], [-81.2606269597373, 40.4851419557343], [-81.26063020879, 40.4849389390319], [-81.2618863804693, 40.484973956813]]], [[[-81.2625049143566, 40.4880140970144], [-81.2625058115771, 40.487971914285], [-81.2629978142775, 40.4878908980613], [-81.2629967872038, 40.4879391983569], [-81.2629890584507, 40.4883025774509], [-81.2632651817447, 40.4884404406561], [-81.2632359297259, 40.4898159442038], [-81.2624670005656, 40.4897959617402], [-81.2625049143566, 40.4880140970144]]], [[[-81.2633605312528, 40.4840832629266], [-81.2633593541254, 40.4841449955946], [-81.2633427653328, 40.4850145385454], [-81.2618863804693, 40.484973956813], [-81.26063020879, 40.4849389390319], [-81.2606369599431, 40.4847271124059], [-81.2606661902071, 40.484115930236], [-81.2627986316844, 40.4841753676498], [-81.2628006442175, 40.4841332645506], [-81.2628036354392, 40.484070673406], [-81.2633605312528, 40.4840832629266]]], [[[-81.2643041389413, 40.4879469151064], [-81.264303440486, 40.4879797837334], [-81.2642308970107, 40.4913926893181], [-81.2631902581913, 40.4913665135829], [-81.2624337404852, 40.4913590808469], [-81.2624564890859, 40.4902899769574], [-81.2641632375408, 40.4903343228395], [-81.2642135052322, 40.4879689964314], [-81.2642141696843, 40.4879377080656], [-81.2643041389413, 40.4879469151064]]], [[[-81.2629978142775, 40.4878908980613], [-81.2625058115771, 40.487971914285], [-81.2618535948406, 40.4880793090144], [-81.2618354632598, 40.4880432614471], [-81.2615390039052, 40.4874538706774], [-81.2624723550557, 40.4869311715653], [-81.2633152320575, 40.4864577179182], [-81.2633129278382, 40.4865784800658], [-81.2632887022258, 40.487842996791], [-81.2632399176332, 40.4878510300914], [-81.2629978142775, 40.4878908980613]]], [[[-81.262316182885, 40.4861397968784], [-81.2623340363815, 40.48623026455], [-81.2624723550557, 40.4869311715653], [-81.2615390039052, 40.4874538706774], [-81.2612575192438, 40.4868942591577], [-81.2612209467867, 40.4868215498259], [-81.2613324089052, 40.4867564937793], [-81.2618758543346, 40.4864158272665], [-81.262316182885, 40.4861397968784]]], [[[-81.263319473053, 40.486235404873], [-81.2633152320575, 40.4864577179182], [-81.2624723550557, 40.4869311715653], [-81.2623340363815, 40.48623026455], [-81.262316182885, 40.4861397968784], [-81.2633334642922, 40.4855020741278], [-81.2633313647451, 40.4856121370454], [-81.263319473053, 40.486235404873]]], [[[-81.2632399176332, 40.4878510300914], [-81.2632887022258, 40.487842996791], [-81.2633146939236, 40.4878456568077], [-81.2642141696843, 40.4879377080656], [-81.2642135052322, 40.4879689964314], [-81.2641632375408, 40.4903343228395], [-81.2624564890859, 40.4902899769574], [-81.2624670005656, 40.4897959617402], [-81.2632359297259, 40.4898159442038], [-81.2632651817447, 40.4884404406561], [-81.2629890584507, 40.4883025774509], [-81.2629967872038, 40.4879391983569], [-81.2629978142775, 40.4878908980613], [-81.2632399176332, 40.4878510300914]]], [[[-81.2645390491023, 40.4848748698984], [-81.2658057462803, 40.4849752964736], [-81.2658344655745, 40.4849741216427], [-81.2658212148469, 40.4862744080192], [-81.2657886315015, 40.4862721654888], [-81.2637175783401, 40.486241335745], [-81.2637303082554, 40.4860599560582], [-81.2640089666879, 40.4858943290767], [-81.2641044621981, 40.4851394884906], [-81.2641189867712, 40.4850246785317], [-81.264414569416, 40.4848649996645], [-81.2645390491023, 40.4848748698984]]], [[[-81.2681026657774, 40.4883355661187], [-81.2662774160229, 40.4881488292003], [-81.2653804576754, 40.4880570529267], [-81.2643041389413, 40.4879469151064], [-81.2642141696843, 40.4879377080656], [-81.2633146939236, 40.4878456568077], [-81.2632887022258, 40.487842996791], [-81.2633129278382, 40.4865784800658], [-81.2658170595729, 40.4866155006061], [-81.2658212148469, 40.4862744080192], [-81.2681415434238, 40.4864340422568], [-81.2681032330986, 40.4883078351421], [-81.2681026657774, 40.4883355661187]]], [[[-81.2637175783401, 40.486241335745], [-81.2657886315015, 40.4862721654888], [-81.2658212148469, 40.4862744080192], [-81.2658170595729, 40.4866155006061], [-81.2633129278382, 40.4865784800658], [-81.2633152320575, 40.4864577179182], [-81.263319473053, 40.486235404873], [-81.2637175783401, 40.486241335745]]], [[[-81.2636111288932, 40.4840889273551], [-81.2636380460269, 40.4841513802402], [-81.2640004306796, 40.4849921820368], [-81.2640067646331, 40.4850068770279], [-81.2633349583212, 40.4854237253168], [-81.2633354588331, 40.4853974742773], [-81.2633427653328, 40.4850145385454], [-81.2633593541254, 40.4841449955946], [-81.2633605312528, 40.4840832629266], [-81.2636111288932, 40.4840889273551]]], [[[-81.2551411629175, 40.4838971677451], [-81.2549312012681, 40.4838924059465], [-81.2549319499809, 40.4838698376479], [-81.2549376425873, 40.4836983665189], [-81.25493857185, 40.4836703684005], [-81.2547484998104, 40.4835338065728], [-81.2546295643246, 40.483473031203], [-81.2544869297949, 40.4834192582668], [-81.2543362500142, 40.4833883674496], [-81.254216169361, 40.483382153724], [-81.2541511067596, 40.4833862877038], [-81.2540597222288, 40.4833920934101], [-81.253958561042, 40.4834005816802], [-81.253582536422, 40.4834321316594], [-81.2534993705859, 40.4834310790343], [-81.2533354233531, 40.483429005033], [-81.2530694990833, 40.4834071696517], [-81.2527545687277, 40.4833457303202], [-81.251510965228, 40.4830042271284], [-81.2514770444449, 40.4829949120198], [-81.2506236466756, 40.4828002694061], [-81.2503820288296, 40.48272537271], [-81.2501882660107, 40.4826411064897], [-81.2501474903693, 40.4826167634553], [-81.2499732345534, 40.4825127313146], [-81.2497932162489, 40.4823844435867], [-81.2497345558301, 40.4823426392533], [-81.2496798583433, 40.4822979619827], [-81.2495725581469, 40.482210317204], [-81.2490795762384, 40.4817649084229], [-81.249024238876, 40.481714910912], [-81.2490246755988, 40.4816995119546], [-81.2490272198369, 40.4816097247454], [-81.2490419812082, 40.4810887846208], [-81.2491983658373, 40.4765125774883], [-81.2587675835432, 40.4766964890736], [-81.2585337035392, 40.4839740498426], [-81.2557577838293, 40.4839111487142], [-81.255761377002, 40.4838211152953], [-81.2551310395753, 40.4835785678403], [-81.2551379081855, 40.4837947217679], [-81.2551407395367, 40.4838838507018], [-81.2551411629175, 40.4838971677451]]], [[[-81.2540693630054, 40.4698260356066], [-81.2529620738273, 40.4705966045462], [-81.2529440334247, 40.4706216372997], [-81.2509228311986, 40.470429557749], [-81.250875043017, 40.4701346726271], [-81.2508200316337, 40.4698283675386], [-81.2540693630054, 40.4698260356066]]], [[[-81.264477378967, 40.4847266450113], [-81.2640067646331, 40.4850068770279], [-81.2640004306796, 40.4849921820368], [-81.2636380460269, 40.4841513802402], [-81.2636111288932, 40.4840889273551], [-81.2640038115743, 40.4840978023134], [-81.2640479359818, 40.4841563956178], [-81.2644645351115, 40.484709590191], [-81.264477378967, 40.4847266450113]]], [[[-81.2550027077691, 40.4730508611529], [-81.2561493342858, 40.4717667758697], [-81.258971778141, 40.4699652456139], [-81.2587675835432, 40.4766964890736], [-81.2491983658373, 40.4765125774883], [-81.2503317433243, 40.4743180249924], [-81.2515965797667, 40.4747820303415], [-81.2520034265971, 40.4740682685836], [-81.2495300582007, 40.4732460473019], [-81.2496376565443, 40.47305729016], [-81.2524992492728, 40.4740085622107], [-81.2529295213309, 40.4732536730812], [-81.2550027077691, 40.4730508611529]]], [[[-81.258971778141, 40.4699652456139], [-81.2561493342858, 40.4717667758697], [-81.2551856478002, 40.4698631136451], [-81.258971778141, 40.4699652456139]]], [[[-81.2658133885614, 40.4841386834213], [-81.2658579685115, 40.48413969021], [-81.2681873736044, 40.4841922720246], [-81.2681415434238, 40.4864340422568], [-81.2658212148469, 40.4862744080192], [-81.2658344655745, 40.4849741216427], [-81.2658057462803, 40.4849752964736], [-81.2658131596335, 40.4841637629571], [-81.2658133885614, 40.4841386834213]]], [[[-81.2632888849295, 40.4944148257621], [-81.2642751180476, 40.4941113444042], [-81.2661703992494, 40.4927624241374], [-81.2662227180336, 40.4914427636173], [-81.2680941001062, 40.4914897777942], [-81.268042993792, 40.492734056339], [-81.2679634643165, 40.4943772625641], [-81.2644809477381, 40.4942798097528], [-81.2636034059709, 40.4945498999764], [-81.2635634240819, 40.4945622050267], [-81.2634538627446, 40.4945187456008], [-81.2632505879433, 40.494426610359], [-81.2632888849295, 40.4944148257621]]], [[[-81.258658965616, 40.4857949817812], [-81.2586557795565, 40.4858955247881], [-81.2586274420453, 40.486789777106], [-81.2586256991473, 40.4868447947265], [-81.2586256305695, 40.4868469546265], [-81.2584455154165, 40.4867177341139], [-81.2584477124093, 40.4866493783871], [-81.2585337035392, 40.4839740498426], [-81.2598549595781, 40.4840039659249], [-81.2598214545384, 40.4847043706795], [-81.2606369599431, 40.4847271124059], [-81.26063020879, 40.4849389390319], [-81.2606269597373, 40.4851419557343], [-81.258658965616, 40.4857949817812]]], [[[-81.2651795054499, 40.4924954857246], [-81.2642308970107, 40.4913926893181], [-81.2653090505162, 40.491419797852], [-81.2662227180336, 40.4914427636173], [-81.2661703992494, 40.4927624241374], [-81.2642751180476, 40.4941113444042], [-81.2632888849295, 40.4944148257621], [-81.2632505879433, 40.494426610359], [-81.2631630894553, 40.4943870695421], [-81.2631811039347, 40.4943638244424], [-81.2632049128993, 40.4943331027902], [-81.2632528293387, 40.4942712727251], [-81.2633242429986, 40.4926325802474], [-81.2651795054499, 40.4924954857246]]], [[[-81.2630733387053, 40.4943121738258], [-81.263160075604, 40.4921269441194], [-81.2630752242772, 40.4942752606543], [-81.2630735351531, 40.4943122678187], [-81.2630719994654, 40.4943459055358], [-81.2630733387053, 40.4943121738258]]], [[[-81.2501214903899, 40.4721581587], [-81.2508395340409, 40.4717710141739], [-81.2514125122252, 40.4718328548308], [-81.251864758257, 40.4717531840564], [-81.251981792416, 40.4717255587756], [-81.2521747491141, 40.4715858977933], [-81.2523460738587, 40.4714513986154], [-81.2529440334247, 40.4706216372997], [-81.2529620738273, 40.4705966045462], [-81.2540693630054, 40.4698260356066], [-81.2541498585379, 40.469828344088], [-81.2542410231394, 40.4677878544972], [-81.2559463630523, 40.4678161511558], [-81.2559340320266, 40.4680708127323], [-81.2556522839216, 40.4684630365304], [-81.254172133103, 40.4698434090182], [-81.2540715402774, 40.4698405192143], [-81.2529716011985, 40.4706058771553], [-81.252355623136, 40.471460448155], [-81.2520213559511, 40.4717164001878], [-81.2519914926063, 40.4717392672307], [-81.2518863198517, 40.471758914558], [-81.2518862677863, 40.471758923896], [-81.2514100510991, 40.4718478822049], [-81.2508413026734, 40.4717865642474], [-81.2501100113467, 40.4721794918354], [-81.2501214903899, 40.4721581587]]], [[[-81.258917199605, 40.4680650329549], [-81.2590273892076, 40.4681322207192], [-81.258971778141, 40.4699652456139], [-81.2551856478002, 40.4698631136451], [-81.2551829702714, 40.4699179733407], [-81.2544270374597, 40.4698964484388], [-81.2531205177029, 40.4707129985365], [-81.2525121430805, 40.4715572131161], [-81.252285054578, 40.4717354897528], [-81.2519922667737, 40.4717870702235], [-81.2518863198517, 40.471758914558], [-81.2519914926063, 40.4717392672307], [-81.2520213559511, 40.4717164001878], [-81.252276959175, 40.4716713699412], [-81.2524482839162, 40.4715368715105], [-81.2530683212769, 40.4706764730377], [-81.2543950798448, 40.4698417720562], [-81.2550759462015, 40.4698601524491], [-81.2565334647516, 40.4680272625155], [-81.257120206132, 40.4680492081764], [-81.2574599578617, 40.4679945061449], [-81.257985662725, 40.4678478049257], [-81.2582500673102, 40.4678599112532], [-81.258917199605, 40.4680650329549]]], [[[-81.2582500673102, 40.4678599112532], [-81.257985662725, 40.4678478049257], [-81.2574599578617, 40.4679945061449], [-81.257120206132, 40.4680492081764], [-81.2565334647516, 40.4680272625155], [-81.2550759462015, 40.4698601524491], [-81.2543950798448, 40.4698417720562], [-81.2530683212769, 40.4706764730377], [-81.2524482839162, 40.4715368715105], [-81.252276959175, 40.4716713699412], [-81.2520213559511, 40.4717164001878], [-81.252355623136, 40.471460448155], [-81.2529716011985, 40.4706058771553], [-81.2540715402774, 40.4698405192143], [-81.254172133103, 40.4698434090182], [-81.2556522839216, 40.4684630365304], [-81.2559340320266, 40.4680708127323], [-81.2559463630523, 40.4678161511558], [-81.2542410231394, 40.4677878544972], [-81.2543017415551, 40.4664287811791], [-81.2590745458855, 40.4665778082604], [-81.2590273892076, 40.4681322207192], [-81.258917199605, 40.4680650329549], [-81.2582500673102, 40.4678599112532]]], [[[-81.2508032000298, 40.4716562059447], [-81.2514062140476, 40.4717212887981], [-81.2521747491141, 40.4715858977933], [-81.251981792416, 40.4717255587756], [-81.251864758257, 40.4717531840564], [-81.2514125122252, 40.4718328548308], [-81.2508395340409, 40.4717710141739], [-81.2501214903899, 40.4721581587], [-81.2501689301649, 40.472069999486], [-81.2502812597736, 40.4719376199211], [-81.2508032000298, 40.4716562059447]]], [[[-81.2681873736044, 40.4841922720246], [-81.2658579685115, 40.48413969021], [-81.2658133885614, 40.4841386834213], [-81.2657265726144, 40.4841367230418], [-81.2682159807707, 40.482792913283], [-81.2682139276016, 40.4828933857569], [-81.2681873736044, 40.4841922720246]]], [[[-81.2656814738891, 40.484135704291], [-81.2655619133242, 40.4841330044364], [-81.2653910202898, 40.4841323956788], [-81.2650006766734, 40.4841215315439], [-81.2640038115743, 40.4840978023134], [-81.2636111288932, 40.4840889273551], [-81.2633605312528, 40.4840832629266], [-81.2628036354392, 40.484070673406], [-81.2620574730266, 40.484053799925], [-81.2598549595781, 40.4840039659249], [-81.2585337035392, 40.4839740498426], [-81.2587675835432, 40.4766964890736], [-81.258971778141, 40.4699652456139], [-81.2637393339473, 40.4700348053438], [-81.2645730772686, 40.4700469493518], [-81.2643630461757, 40.4768036559741], [-81.2642665304182, 40.4799081279295], [-81.2656893430044, 40.4840289064115], [-81.2657265726144, 40.4841367230418], [-81.2656814738891, 40.484135704291]]], [[[-81.2640479359818, 40.4841563956178], [-81.2640038115743, 40.4840978023134], [-81.2650006766734, 40.4841215315439], [-81.2653910202898, 40.4841323956788], [-81.2655619133242, 40.4841330044364], [-81.2648231861223, 40.4845207280894], [-81.264477378967, 40.4847266450113], [-81.2644645351115, 40.484709590191], [-81.2640479359818, 40.4841563956178]]], [[[-81.2643630461757, 40.4768036559741], [-81.2645730772686, 40.4700469493518], [-81.2685068985347, 40.470104165124], [-81.2683368539997, 40.4768795979852], [-81.2682180626565, 40.4826910793469], [-81.2682159807707, 40.482792913283], [-81.2657265726144, 40.4841367230418], [-81.2656893430044, 40.4840289064115], [-81.2642665304182, 40.4799081279295], [-81.2643630461757, 40.4768036559741]]], [[[-81.2503972477405, 40.4724118928201], [-81.251544417671, 40.4720806216442], [-81.2519714299911, 40.4722222845798], [-81.251684538907, 40.4727266353014], [-81.2516316598223, 40.4728222470473], [-81.2512279697936, 40.4726880502827], [-81.2502311752805, 40.4724598486774], [-81.2503972477405, 40.4724118928201]]], [[[-81.252285054578, 40.4717354897528], [-81.2525121430805, 40.4715572131161], [-81.2531205177029, 40.4707129985365], [-81.2544270374597, 40.4698964484388], [-81.2551829702714, 40.4699179733407], [-81.2551856478002, 40.4698631136451], [-81.2561493342858, 40.4717667758697], [-81.2550027077691, 40.4730508611529], [-81.2529295213309, 40.4732536730812], [-81.2516316598223, 40.4728222470473], [-81.251684538907, 40.4727266353014], [-81.2519714299911, 40.4722222845798], [-81.251544417671, 40.4720806216442], [-81.2503972477405, 40.4724118928201], [-81.2500475168686, 40.4722956296079], [-81.2500705458488, 40.4722528344308], [-81.2508576932099, 40.4718284299063], [-81.2514156540196, 40.471888649926], [-81.2519922667737, 40.4717870702235], [-81.252285054578, 40.4717354897528]]], [[[-81.2496376565443, 40.47305729016], [-81.2500004274431, 40.4723831387416], [-81.2502311752805, 40.4724598486774], [-81.2512279697936, 40.4726880502827], [-81.2516316598223, 40.4728222470473], [-81.2529295213309, 40.4732536730812], [-81.2524992492728, 40.4740085622107], [-81.2496376565443, 40.47305729016]]], [[[-81.2493110104544, 40.4715760547503], [-81.2493364917962, 40.4702797754318], [-81.2493396365577, 40.4701197786866], [-81.2493449725498, 40.4698483015305], [-81.2493454911326, 40.4698219408146], [-81.2493465758396, 40.4697667503336], [-81.2493550583999, 40.4694698229772], [-81.2494435436706, 40.469471472051], [-81.2494488238583, 40.4694715704062], [-81.250413663512, 40.4694895523034], [-81.2505065059506, 40.4694912824582], [-81.2505335493839, 40.4694917864201], [-81.2505540901409, 40.4694921687884], [-81.2506378844542, 40.4696428025845], [-81.2507410207369, 40.4698282056789], [-81.2507557342288, 40.4698282360521], [-81.2508200316337, 40.4698283675386], [-81.250875043017, 40.4701346726271], [-81.2509228311986, 40.470429557749], [-81.2508661069028, 40.4709371641586], [-81.2507145372639, 40.4713327203382], [-81.2506564766458, 40.4714150291582], [-81.2505446058461, 40.4713760032834], [-81.2504790400853, 40.4713531308962], [-81.2502094230388, 40.4712590755992], [-81.2500286930408, 40.4715361416955], [-81.2496241448992, 40.4717724300575], [-81.24937259608, 40.4716146770386], [-81.2493110104544, 40.4715760547503]]], [[[-81.2449848659041, 40.4623991850151], [-81.2496953375914, 40.4625400011642], [-81.2496007931076, 40.4644655507347], [-81.249600791168, 40.4644655912425], [-81.2449162267831, 40.464325549213], [-81.2449848659041, 40.4623991850151]]], [[[-81.249768716578, 40.4652830418961], [-81.2497687148312, 40.4648126474165], [-81.2499072094006, 40.4645593586025], [-81.2509967390334, 40.4649171557757], [-81.2506266283092, 40.465574608949], [-81.2498373163774, 40.465311556296], [-81.2497687166267, 40.4652886934462], [-81.249768716578, 40.4652830418961]]], [[[-81.2494392363326, 40.4677556710164], [-81.2494818820413, 40.4668871953625], [-81.2495150338047, 40.4668988939474], [-81.2495400109847, 40.4669077073986], [-81.2506535314593, 40.4673006350556], [-81.2506351945819, 40.4678163744576], [-81.2495085256092, 40.4677930023518], [-81.249437474631, 40.4677915280323], [-81.2494392363326, 40.4677556710164]]], [[[-81.2543017415551, 40.4664287811791], [-81.2544431943171, 40.4626384535357], [-81.2591910638838, 40.4627367084775], [-81.2590814733277, 40.466349469421], [-81.2590745458855, 40.4665778082604], [-81.2543017415551, 40.4664287811791]]], [[[-81.2616522451733, 40.4553766461901], [-81.2618070248856, 40.4560709126154], [-81.2627898322952, 40.4559427764378], [-81.2631081842962, 40.4554117805912], [-81.2642537601949, 40.4554427439542], [-81.2639389486382, 40.4628347651139], [-81.2591910638838, 40.4627367084775], [-81.2595299640499, 40.4553177687097], [-81.2616522451733, 40.4553766461901]]], [[[-81.2522338527058, 40.4477598943654], [-81.252119595459, 40.4519500286246], [-81.2521192496171, 40.4519627014209], [-81.2500777262148, 40.4511620990514], [-81.2500794520819, 40.4511151024683], [-81.2501591693336, 40.4489442784287], [-81.2502044347185, 40.4477115935966], [-81.2522338527058, 40.4477598943654]]], [[[-81.2521192496171, 40.4519627014209], [-81.2521649296174, 40.4519806147086], [-81.2522748845006, 40.4520089529578], [-81.2525715353875, 40.4520854082737], [-81.2526237374956, 40.4520988623991], [-81.2527620738153, 40.4521138168792], [-81.2532156156889, 40.4521628432277], [-81.254065759639, 40.4522547364168], [-81.2549650827134, 40.4522584839552], [-81.2551537583647, 40.4522592697896], [-81.2569630294601, 40.4521940329422], [-81.2584505409545, 40.4522930315656], [-81.2596258961165, 40.452412329905], [-81.2596245513536, 40.4524562513997], [-81.2595299640499, 40.4553177687097], [-81.2499477546472, 40.4551377901084], [-81.2499458971402, 40.4551377553593], [-81.2499463378229, 40.4551244495486], [-81.2499731872975, 40.4543145546056], [-81.2499922976886, 40.4537383130822], [-81.2500114065872, 40.4531620706462], [-81.2500139435729, 40.4530855480847], [-81.2500390848711, 40.4523273972417], [-81.2500563733723, 40.4518060355137], [-81.2500777262148, 40.4511620990514], [-81.2521192496171, 40.4519627014209]]], [[[-81.2310488435153, 40.4494505406967], [-81.2310492180795, 40.4494402216331], [-81.2310533768383, 40.4493257396615], [-81.2311271753972, 40.4472939290071], [-81.2352444820278, 40.4473772486647], [-81.2357002225266, 40.4484025567197], [-81.2357233589917, 40.4484546082884], [-81.2334477276323, 40.4489097536889], [-81.2334267895804, 40.4488536469996], [-81.2329837778499, 40.4476665307341], [-81.2320977525977, 40.4479882628744], [-81.2322743938306, 40.4490907163449], [-81.2322849654489, 40.4491566936166], [-81.2314713635391, 40.449308725552], [-81.2314695115167, 40.449355592703], [-81.2314686333, 40.4493778163388], [-81.2310488435153, 40.4494505406967]]], [[[-81.2402326710773, 40.4548276676751], [-81.235708020968, 40.4547327437179], [-81.2308606617318, 40.4546308514659], [-81.2309294283731, 40.452737921401], [-81.238797308729, 40.4511067207815], [-81.2377516887567, 40.4480727099103], [-81.2377375124222, 40.4480315746175], [-81.2391397689762, 40.4477370294164], [-81.2394342285004, 40.4476751863208], [-81.2402733293862, 40.4474989205991], [-81.2403606591296, 40.4474805753327], [-81.2406598638654, 40.4474302025619], [-81.2406586100816, 40.4474786336063], [-81.2406583584781, 40.4474865808376], [-81.2402326710773, 40.4548276676751]]], [[[-81.251844850109, 40.4420300658662], [-81.2530078716657, 40.4404467182696], [-81.2530968302714, 40.4404485430271], [-81.2551853168541, 40.4404913641368], [-81.2549551576498, 40.4478246039838], [-81.2522338527058, 40.4477598943654], [-81.2502044347185, 40.4477115935966], [-81.2502763770467, 40.4457471889452], [-81.2502794992428, 40.4456619356408], [-81.2507240686499, 40.4452598842668], [-81.2508121043527, 40.4451768276359], [-81.2508956145458, 40.4450911069015], [-81.2509744601937, 40.4450028647694], [-81.251048510027, 40.4449122481436], [-81.2511176407607, 40.4448194078816], [-81.2511817372997, 40.4447244985436], [-81.25124069293, 40.4446276781349], [-81.2512944094971, 40.4445291078431], [-81.2513427975686, 40.4444289517697], [-81.2513857765837, 40.444327376657], [-81.2514232749868, 40.4442245516105], [-81.2514552303474, 40.4441206478175], [-81.251481589463, 40.4440158382618], [-81.2515023084488, 40.4439102974364], [-81.2515173528097, 40.443804201052], [-81.2515266974986, 40.4436977257457], [-81.251586572838, 40.4427187591169], [-81.2515955087003, 40.4426286987133], [-81.2516112775799, 40.442539182663], [-81.2516338266254, 40.4424505109929], [-81.2516630802609, 40.4423629809011], [-81.2516989404391, 40.4422768857605], [-81.2517412869704, 40.4421925141358], [-81.2517899779249, 40.4421101488158], [-81.251844850109, 40.4420300658662]]], [[[-81.246004900592, 40.4550119325665], [-81.2402326710773, 40.4548276676751], [-81.2406583584781, 40.4474865808376], [-81.2442089652668, 40.4475581448917], [-81.244594172666, 40.447565901643], [-81.2472365260369, 40.447619280584], [-81.2472946403639, 40.4476204542284], [-81.2477784842787, 40.4484565660238], [-81.2477487492423, 40.4484886378579], [-81.2461648544618, 40.4501969691501], [-81.2461389867966, 40.4509756904712], [-81.2461079943067, 40.4519086532447], [-81.2460997903383, 40.4521556138741], [-81.2460756343782, 40.4528827758342], [-81.2460641549189, 40.4532283284091], [-81.2460463784859, 40.4537634094704], [-81.2460286029461, 40.4542984905452], [-81.246004900592, 40.4550119325665]]], [[[-81.2477487492423, 40.4484886378579], [-81.2477784842787, 40.4484565660238], [-81.2483886667128, 40.4494792921433], [-81.2483622622327, 40.4494968561332], [-81.2461389867966, 40.4509756904712], [-81.2461648544618, 40.4501969691501], [-81.2477487492423, 40.4484886378579]]], [[[-81.2499477546472, 40.4551377901084], [-81.2595299640499, 40.4553177687097], [-81.2591910638838, 40.4627367084775], [-81.2544431943171, 40.4626384535357], [-81.2496953375914, 40.4625400011642], [-81.2499324331006, 40.4560690858709], [-81.249943179414, 40.4556587029423], [-81.249944804565, 40.4553470929788], [-81.2499458971402, 40.4551377553593], [-81.2499477546472, 40.4551377901084]]], [[[-81.235708020968, 40.4547327437179], [-81.2402326710773, 40.4548276676751], [-81.2401467257946, 40.4621885542979], [-81.2352183034609, 40.457766821676], [-81.2344794043936, 40.4567912796566], [-81.2348165791736, 40.4566898138181], [-81.2351391485129, 40.4561555573749], [-81.2354302626711, 40.45542745658], [-81.235708020968, 40.4547327437179]]], [[[-81.2529440334247, 40.4706216372997], [-81.2523460738587, 40.4714513986154], [-81.2521747491141, 40.4715858977933], [-81.2514062140476, 40.4717212887981], [-81.2508032000298, 40.4716562059447], [-81.2502812597736, 40.4719376199211], [-81.2503202931623, 40.4718916206239], [-81.2506564766458, 40.4714150291582], [-81.2507145372639, 40.4713327203382], [-81.2508661069028, 40.4709371641586], [-81.2509228311986, 40.470429557749], [-81.2529440334247, 40.4706216372997]]], [[[-81.2498461023834, 40.4556562754826], [-81.2485066039699, 40.4556227807149], [-81.2484772052212, 40.4563086359044], [-81.2498281705311, 40.456086249817], [-81.2499005473681, 40.456074335145], [-81.2499324331006, 40.4560690858709], [-81.2496953375914, 40.4625400011642], [-81.2449848659041, 40.4623991850151], [-81.2401463222449, 40.4622014741261], [-81.2401467257946, 40.4621885542979], [-81.2402326710773, 40.4548276676751], [-81.246004900592, 40.4550119325665], [-81.2498692303156, 40.4551353091176], [-81.2499458971402, 40.4551377553593], [-81.249944804565, 40.4553470929788], [-81.249943179414, 40.4556587029423], [-81.2499179314184, 40.4556580716334], [-81.2498461023834, 40.4556562754826]]], [[[-81.2484772052212, 40.4563086359044], [-81.2485066039699, 40.4556227807149], [-81.2498461023834, 40.4556562754826], [-81.2499179314184, 40.4556580716334], [-81.249943179414, 40.4556587029423], [-81.2499324331006, 40.4560690858709], [-81.2499005473681, 40.456074335145], [-81.2498281705311, 40.456086249817], [-81.2484772052212, 40.4563086359044]]], [[[-81.2584962254186, 40.4504817399114], [-81.2584509777596, 40.4522757295418], [-81.2584505409545, 40.4522930315656], [-81.2569630294601, 40.4521940329422], [-81.2551537583647, 40.4522592697896], [-81.2549650827134, 40.4522584839552], [-81.2549652633189, 40.4522519742654], [-81.2550879246834, 40.447827759596], [-81.259732509334, 40.4479380480646], [-81.2596716157788, 40.4506010448112], [-81.2584962254186, 40.4504817399114]]], [[[-81.2522748845006, 40.4520089529578], [-81.2521649296174, 40.4519806147086], [-81.2521192496171, 40.4519627014209], [-81.252119595459, 40.4519500286246], [-81.2522338527058, 40.4477598943654], [-81.2549551576498, 40.4478246039838], [-81.2550879246834, 40.447827759596], [-81.2549652633189, 40.4522519742654], [-81.2549650827134, 40.4522584839552], [-81.254065759639, 40.4522547364168], [-81.2532156156889, 40.4521628432277], [-81.2527620738153, 40.4521138168792], [-81.2526237374956, 40.4520988623991], [-81.2525715353875, 40.4520854082737], [-81.2522748845006, 40.4520089529578]]], [[[-81.2499630532023, 40.4543145138931], [-81.2499731872975, 40.4543145546056], [-81.2499463378229, 40.4551244495486], [-81.2499458971402, 40.4551377553593], [-81.2498692303156, 40.4551353091176], [-81.246004900592, 40.4550119325665], [-81.2460286029461, 40.4542984905452], [-81.2498911796975, 40.4543142222461], [-81.2499630532023, 40.4543145138931]]], [[[-81.2499127379862, 40.4537388208159], [-81.2499846638609, 40.4537383618914], [-81.2499922976886, 40.4537383130822], [-81.2499731872975, 40.4543145546056], [-81.2499630532023, 40.4543145138931], [-81.2498911796975, 40.4543142222461], [-81.2460286029461, 40.4542984905452], [-81.2460463784859, 40.4537634094704], [-81.2499127379862, 40.4537388208159]]], [[[-81.2500114065872, 40.4531620706462], [-81.2499922976886, 40.4537383130822], [-81.2499846638609, 40.4537383618914], [-81.2499127379862, 40.4537388208159], [-81.2460463784859, 40.4537634094704], [-81.2460641549189, 40.4532283284091], [-81.2499381050852, 40.4531633025823], [-81.2500100644681, 40.4531620928774], [-81.2500114065872, 40.4531620706462]]], [[[-81.2500390848711, 40.4523273972417], [-81.2500139435729, 40.4530855480847], [-81.2500114065872, 40.4531620706462], [-81.2500100644681, 40.4531620928774], [-81.2499381050852, 40.4531633025823], [-81.2460641549189, 40.4532283284091], [-81.2460756343782, 40.4528827758342], [-81.2471159736085, 40.4526517333529], [-81.2486085255122, 40.452387640248], [-81.2496517787621, 40.4523716853747], [-81.249985743956, 40.4523334968789], [-81.2500390848711, 40.4523273972417]]], [[[-81.2500563733723, 40.4518060355137], [-81.2500390848711, 40.4523273972417], [-81.249985743956, 40.4523334968789], [-81.2496517787621, 40.4523716853747], [-81.2486085255122, 40.452387640248], [-81.2471159736085, 40.4526517333529], [-81.2460756343782, 40.4528827758342], [-81.2460997903383, 40.4521556138741], [-81.2472187212008, 40.4520567668309], [-81.2500162109859, 40.4518095847223], [-81.2500563733723, 40.4518060355137]]], [[[-81.2492810547597, 40.4505309789695], [-81.2496405186558, 40.4508539342754], [-81.2500777262148, 40.4511620990514], [-81.2500563733723, 40.4518060355137], [-81.2500162109859, 40.4518095847223], [-81.2472187212008, 40.4520567668309], [-81.2492647772088, 40.4505430223865], [-81.2492810547597, 40.4505309789695]]], [[[-81.2487966090183, 40.4500894589377], [-81.2488136207569, 40.4501110150045], [-81.2492810547597, 40.4505309789695], [-81.2492647772088, 40.4505430223865], [-81.2472187212008, 40.4520567668309], [-81.2460997903383, 40.4521556138741], [-81.2461079943067, 40.4519086532447], [-81.2487671799106, 40.4501093720786], [-81.2487966090183, 40.4500894589377]]], [[[-81.2483622622327, 40.4494968561332], [-81.2483886667128, 40.4494792921433], [-81.2484131051915, 40.4495202539478], [-81.2486167430538, 40.4498615604963], [-81.2487966090183, 40.4500894589377], [-81.2487671799106, 40.4501093720786], [-81.2461079943067, 40.4519086532447], [-81.2461389867966, 40.4509756904712], [-81.2483622622327, 40.4494968561332]]], [[[-81.2502044347185, 40.4477115935966], [-81.2501591693336, 40.4489442784287], [-81.248448747183, 40.4495084968112], [-81.2484131051915, 40.4495202539478], [-81.2483886667128, 40.4494792921433], [-81.2477784842787, 40.4484565660238], [-81.2472946403639, 40.4476204542284], [-81.2473163877264, 40.4476211359991], [-81.2502044347185, 40.4477115935966]]], [[[-81.248448747183, 40.4495084968112], [-81.2501591693336, 40.4489442784287], [-81.2500794520819, 40.4511151024683], [-81.2500777262148, 40.4511620990514], [-81.2496405186558, 40.4508539342754], [-81.2492810547597, 40.4505309789695], [-81.2488136207569, 40.4501110150045], [-81.2487966090183, 40.4500894589377], [-81.2486167430538, 40.4498615604963], [-81.2484131051915, 40.4495202539478], [-81.248448747183, 40.4495084968112]]], [[[-81.2501100113467, 40.4721794918354], [-81.2508413026734, 40.4717865642474], [-81.2514100510991, 40.4718478822049], [-81.2518862677863, 40.471758923896], [-81.2518863198517, 40.471758914558], [-81.2519922667737, 40.4717870702235], [-81.2514156540196, 40.471888649926], [-81.2508576932099, 40.4718284299063], [-81.2500705458488, 40.4722528344308], [-81.2501100113467, 40.4721794918354]]], [[[-81.2507410207369, 40.4698282056789], [-81.2506378844542, 40.4696428025845], [-81.2505540901409, 40.4694921687884], [-81.2505168978918, 40.4694213151587], [-81.2503132273309, 40.469105388917], [-81.2502639782604, 40.4690546641661], [-81.2502411360022, 40.4690176246081], [-81.250217855428, 40.4689798750427], [-81.2498135239682, 40.4683242220245], [-81.2494888334373, 40.4683466557087], [-81.2494489766786, 40.4683494102031], [-81.2494193362057, 40.4683514587864], [-81.2494102480981, 40.4683459670892], [-81.2494110785973, 40.4683290566598], [-81.249437474631, 40.4677915280323], [-81.2495085256092, 40.4677930023518], [-81.2506351945819, 40.4678163744576], [-81.2506535314593, 40.4673006350556], [-81.2495400109847, 40.4669077073986], [-81.2495150338047, 40.4668988939474], [-81.2494818820413, 40.4668871953625], [-81.2495040910606, 40.4664349417242], [-81.249519210205, 40.466127031634], [-81.249547834221, 40.4655440988557], [-81.2495478362284, 40.465544054746], [-81.2496007893974, 40.4644656227457], [-81.249600791168, 40.4644655912425], [-81.2496007931076, 40.4644655507347], [-81.2496953375914, 40.4625400011642], [-81.2544431943171, 40.4626384535357], [-81.2543017415551, 40.4664287811791], [-81.2542410231394, 40.4677878544972], [-81.2541498585379, 40.469828344088], [-81.2540693630054, 40.4698260356066], [-81.2508200316337, 40.4698283675386], [-81.2507557342288, 40.4698282360521], [-81.2507410207369, 40.4698282056789]], [[-81.2509967390334, 40.4649171557757], [-81.2499072094006, 40.4645593586025], [-81.2497687148312, 40.4648126474165], [-81.249768716578, 40.4652830418961], [-81.2497687166267, 40.4652886934462], [-81.2498373163774, 40.465311556296], [-81.2506266283092, 40.465574608949], [-81.2509967390334, 40.4649171557757]]], [[[-81.2494888334373, 40.4683466557087], [-81.2498135239682, 40.4683242220245], [-81.250217855428, 40.4689798750427], [-81.2502411360022, 40.4690176246081], [-81.2502639782604, 40.4690546641661], [-81.2501077350471, 40.4688937415841], [-81.2499751178946, 40.4687571516681], [-81.2496677630976, 40.4685015464797], [-81.249487204532, 40.4683924618084], [-81.2494193362057, 40.4683514587864], [-81.2494489766786, 40.4683494102031], [-81.2494888334373, 40.4683466557087]]], [[[-81.2400747227546, 40.4638740479526], [-81.2401463222449, 40.4622014741261], [-81.2449848659041, 40.4623991850151], [-81.2449162267831, 40.464325549213], [-81.249600791168, 40.4644655912425], [-81.2496007893974, 40.4644656227457], [-81.2495478362284, 40.465544054746], [-81.249547834221, 40.4655440988557], [-81.249519210205, 40.466127031634], [-81.2495040910606, 40.4664349417242], [-81.2494818820413, 40.4668871953625], [-81.2494392363326, 40.4677556710164], [-81.249437474631, 40.4677915280323], [-81.2494110785973, 40.4683290566598], [-81.2494102480981, 40.4683459670892], [-81.2492701238989, 40.4682613108877], [-81.2492000431627, 40.4682293701113], [-81.2485706057226, 40.4679424880952], [-81.2484894084558, 40.4679054795989], [-81.2484623590799, 40.4678931514055], [-81.2483473094155, 40.4678344660931], [-81.2478416918303, 40.467576553659], [-81.2475079433889, 40.4674063080854], [-81.2465041325415, 40.466871770094], [-81.2460387238192, 40.4666269999319], [-81.2453021982031, 40.4663171900168], [-81.2451424182904, 40.4662141439288], [-81.2448381495534, 40.4660167635834], [-81.2446246240819, 40.4659186703228], [-81.2442131825168, 40.4657296504757], [-81.2442006486028, 40.4657238934956], [-81.2441888655684, 40.4657207161172], [-81.2438497166884, 40.4656292743485], [-81.2437533091154, 40.4656032802187], [-81.2432860175507, 40.4654792969183], [-81.243033015183, 40.4654121689781], [-81.2429235347344, 40.4653902101286], [-81.242465331334, 40.4652983036449], [-81.2416814355311, 40.4651410654372], [-81.2413487678211, 40.4650782741182], [-81.2412662667174, 40.4650669721017], [-81.241213739301, 40.46505608333], [-81.240795799387, 40.4649694414356], [-81.2405944278126, 40.4649242317534], [-81.2404741080849, 40.4648885106872], [-81.2403825465259, 40.4648551232957], [-81.240253164455, 40.4647948557655], [-81.2400403376569, 40.4646702320724], [-81.2400408749368, 40.4646577874598], [-81.2400747227546, 40.4638740479526]]], [[[-81.2413488589585, 40.4650823748662], [-81.2413487678211, 40.4650782741182], [-81.2416814355311, 40.4651410654372], [-81.242465331334, 40.4652983036449], [-81.2429235347344, 40.4653902101286], [-81.243033015183, 40.4654121689781], [-81.2432860175507, 40.4654792969183], [-81.2437533091154, 40.4656032802187], [-81.2437357355037, 40.4656307727377], [-81.2436914994504, 40.4656999771428], [-81.2433527015762, 40.4662300026222], [-81.2436475169164, 40.4663494671118], [-81.2449458817038, 40.466875571795], [-81.2449990865298, 40.4669777260381], [-81.2454939492589, 40.4679278578555], [-81.2451923652934, 40.4692045098889], [-81.2450862511793, 40.4696536983317], [-81.2450858308922, 40.4696554751908], [-81.2424197782609, 40.4695857671521], [-81.2421903812731, 40.4695797667644], [-81.24213798055, 40.4695783960849], [-81.2421281521391, 40.4695367572069], [-81.2420201218852, 40.4690790996557], [-81.2414224639523, 40.4665470872834], [-81.2413772514152, 40.4663555320603], [-81.2413518203863, 40.4652151475094], [-81.2413495861449, 40.4651149700776], [-81.2413488589585, 40.4650823748662]]]]}}]}