{"type": "FeatureCollection", "crs": {"type": "name", "properties": {"name": "EPSG:4326"}}, "features": [{"type": "Feature", "geometry": {"type": "Polygon", "coordinates": [[[-81.438804, 40.635073], [-81.438382, 40.634082], [-81.438018, 40.63323], [-81.43756, 40.632157], [-81.437553, 40.632368], [-81.437422, 40.636296], [-81.437419, 40.636387], [-81.438209, 40.636605], [-81.438204, 40.636593], [-81.437981, 40.636071], [-81.438222, 40.636011], [-81.437982, 40.635732], [-81.43756, 40.635381], [-81.438804, 40.635073]]]}, "properties": {"PARCEL_ID": "34-00190-000", "Listed_Name": "KRIZMAN DAVID", "Location_Address": "NE STATE ROUTE 212", "Acres": 6.49, "SUR_ACRE": 6.489, "Land_Use": "100-AGRICULTURAL VACANT LAND", "District": "34-LAWRENCE TWP-TUSC VALLEY SD", "Appraised_Total_100": 83350, "Legal_Description": "2 10 1 6.489A (G LEBOLD)", "owner_group": "krizman", "owner": "KRIZMAN DAVID", "address": "NE STATE ROUTE 212", "acres": 6.49, "land_use": "100-AGRICULTURAL VACANT LAND", "appraised": 83350}}, {"type": "Feature", "geometry": {"type": "Polygon", "coordinates": [[[-81.44196, 40.636954], [-81.442504, 40.636983], [-81.442459, 40.636687], [-81.44243, 40.636389], [-81.442427, 40.63637], [-81.442419, 40.63635], [-81.442407, 40.636333], [-81.442391, 40.636316], [-81.442372, 40.636303], [-81.44235, 40.636292], [-81.442326, 40.636283], [-81.442301, 40.636278], [-81.442275, 40.636277], [-81.441142, 40.636284], [-81.440156, 40.636408], [-81.440289, 40.636724], [-81.440733, 40.636763], [-81.440675, 40.636814], [-81.441291, 40.636882], [-81.44178, 40.636935], [-81.44196, 40.636954]]]}, "properties": {"PARCEL_ID": "34-00199-000", "Listed_Name": "KRIZMAN ENTERPRISES -A PARTNERSHIP", "Location_Address": "STATE ROUTE 212", "Acres": 3.02, "SUR_ACRE": 3.016, "Land_Use": "110-AGRICULTURAL VACANT LAND \"QUALIFIED FOR CURRENT AGRICULTURAL USE VALUE\"", "District": "34-LAWRENCE TWP-TUSC VALLEY SD", "Appraised_Total_100": 22170, "Legal_Description": "2 10 1 ZOAR SD 3.016 (BUEHLER)", "owner_group": "krizman", "owner": "KRIZMAN ENTERPRISES -A PARTNERSHIP", "address": "STATE ROUTE 212", "acres": 3.02, "land_use": "110-AGRICULTURAL VACANT LAND \"QUALIFIED FOR CURRENT AGRICULTURAL USE VALUE\"", "appraised": 22170}}, {"type": "Feature", "geometry": {"type": "Polygon", "coordinates": [[[-81.438029, 40.626253], [-81.439892, 40.626353], [-81.439125, 40.625605], [-81.43911, 40.625614], [-81.438885, 40.625748], [-81.438644, 40.625892], [-81.438502, 40.625976], [-81.438189, 40.626162], [-81.438161, 40.626179], [-81.438029, 40.626253]]]}, "properties": {"PARCEL_ID": "34-00509-000", "Listed_Name": "KRIZMAN ENTERPRISES -A LIMITED PARTNERSHIP", "Location_Address": "WILKSHIRE BLVD", "Acres": 1.52, "SUR_ACRE": 1.523, "Land_Use": "400-COMMERCIAL - VACANT LAND", "District": "34-LAWRENCE TWP-TUSC VALLEY SD", "Appraised_Total_100": 30650, "Legal_Description": "2 10 1 7-8 ZOAR SD 1.5231A (HYKES-HUFFMAN)", "owner_group": "krizman", "owner": "KRIZMAN ENTERPRISES -A LIMITED PARTNERSHIP", "address": "WILKSHIRE BLVD", "acres": 1.52, "land_use": "400-COMMERCIAL - VACANT LAND", "appraised": 30650}}, {"type": "Feature", "geometry": {"type": "Polygon", "coordinates": [[[-81.437163, 40.631138], [-81.437247, 40.631337], [-81.437363, 40.631343], [-81.44224, 40.631605], [-81.44226, 40.631386], [-81.437268, 40.631118], [-81.437153, 40.631112], [-81.437152, 40.631112], [-81.437163, 40.631138]]]}, "properties": {"PARCEL_ID": "34-00588-000", "Listed_Name": "WILKSHIRE HILLS HOLDINGS LLC", "Location_Address": "ARROW HEAD RD", "Acres": 2.58, "SUR_ACRE": 2.581, "Land_Use": "100-AGRICULTURAL VACANT LAND", "District": "34-LAWRENCE TWP-TUSC VALLEY SD", "Appraised_Total_100": 0, "Legal_Description": "2 10 1 3 ZOAR SD 2.5815A", "owner_group": "wilkshire", "owner": "WILKSHIRE HILLS HOLDINGS LLC", "address": "ARROW HEAD RD", "acres": 2.58, "land_use": "100-AGRICULTURAL VACANT LAND", "appraised": 0}}, {"type": "Feature", "geometry": {"type": "Polygon", "coordinates": [[[-81.445119, 40.644418], [-81.445835, 40.644858], [-81.445861, 40.644806], [-81.445878, 40.644771], [-81.445946, 40.64457], [-81.445972, 40.644363], [-81.445978, 40.643969], [-81.445977, 40.643928], [-81.445412, 40.644136], [-81.445186, 40.644353], [-81.445119, 40.644418]]]}, "properties": {"PARCEL_ID": "34-02193-001", "Listed_Name": "KRIZMAN ENTERPRISES", "Location_Address": "NE GLEN PARK DR", "Acres": 1.05, "SUR_ACRE": 1.051, "Land_Use": "501-RESIDENTIAL VACANT LAND - UNPLATTED 0 - 9.99 ACRES", "District": "34-LAWRENCE TWP-TUSC VALLEY SD", "Appraised_Total_100": 28280, "Legal_Description": "2 10 1 1.051A", "owner_group": "krizman", "owner": "KRIZMAN ENTERPRISES", "address": "NE GLEN PARK DR", "acres": 1.05, "land_use": "501-RESIDENTIAL VACANT LAND - UNPLATTED 0 - 9.99 ACRES", "appraised": 28280}}, {"type": "Feature", "geometry": {"type": "Polygon", "coordinates": [[[-81.430883, 40.622218], [-81.431279, 40.62236], [-81.431433, 40.622149], [-81.431541, 40.622], [-81.431694, 40.621789], [-81.431205, 40.621696], [-81.430883, 40.622218]]]}, "properties": {"PARCEL_ID": "34-02395-000", "Listed_Name": "KRIZMAN ENTERPRISES -A LIMITED PARTNERSHIP", "Location_Address": "STATE ROUTE 212", "Acres": 0, "SUR_ACRE": 0, "Land_Use": "500-RESIDENTIAL VACANT LAND", "District": "34-LAWRENCE TWP-TUSC VALLEY SD", "Appraised_Total_100": 36440, "Legal_Description": "PR 531", "owner_group": "krizman", "owner": "KRIZMAN ENTERPRISES -A LIMITED PARTNERSHIP", "address": "STATE ROUTE 212", "acres": 0, "land_use": "500-RESIDENTIAL VACANT LAND", "appraised": 36440}}, {"type": "Feature", "geometry": {"type": "Polygon", "coordinates": [[[-81.454171, 40.634072], [-81.454766, 40.634105], [-81.454374, 40.633192], [-81.453763, 40.632137], [-81.453277, 40.630861], [-81.452866, 40.63041], [-81.452371, 40.630087], [-81.451552, 40.629021], [-81.449737, 40.627209], [-81.44946, 40.626865], [-81.448698, 40.626825], [-81.446956, 40.626731], [-81.448476, 40.628495], [-81.449792, 40.629975], [-81.451124, 40.631398], [-81.451171, 40.63145], [-81.452189, 40.633963], [-81.454171, 40.634072]]]}, "properties": {"PARCEL_ID": "34-02585-000", "Listed_Name": "WILKSHIRE HILLS HOLDINGS LLC", "Location_Address": "WILKSHIRE BLVD", "Acres": 42.17, "SUR_ACRE": 42.172, "Land_Use": "100-AGRICULTURAL VACANT LAND", "District": "34-LAWRENCE TWP-TUSC VALLEY SD", "Appraised_Total_100": 59150, "Legal_Description": "2 10 1 3 ZOAR SD 42.1720A", "owner_group": "wilkshire", "owner": "WILKSHIRE HILLS HOLDINGS LLC", "address": "WILKSHIRE BLVD", "acres": 42.17, "land_use": "100-AGRICULTURAL VACANT LAND", "appraised": 59150}}, {"type": "Feature", "geometry": {"type": "Polygon", "coordinates": [[[-81.437405, 40.62989], [-81.442271, 40.630153], [-81.442196, 40.629855], [-81.442105, 40.62956], [-81.441916, 40.629066], [-81.441684, 40.628583], [-81.44141, 40.628113], [-81.441396, 40.628099], [-81.441378, 40.628086], [-81.441359, 40.628076], [-81.441337, 40.628068], [-81.441314, 40.628063], [-81.44129, 40.628061], [-81.441266, 40.628063], [-81.441243, 40.628067], [-81.44122, 40.628074], [-81.441053, 40.627831], [-81.441073, 40.627821], [-81.44109, 40.62781], [-81.441105, 40.627796], [-81.441117, 40.627781], [-81.441125, 40.627764], [-81.44113, 40.627747], [-81.441131, 40.62773], [-81.441128, 40.627712], [-81.441122, 40.627695], [-81.441112, 40.627679], [-81.440721, 40.627195], [-81.440283, 40.626734], [-81.439892, 40.626353], [-81.438029, 40.626253], [-81.437901, 40.627673], [-81.43811, 40.627934], [-81.438766, 40.628753], [-81.438445, 40.628921], [-81.438149, 40.629115], [-81.437883, 40.629331], [-81.437622, 40.6296], [-81.437405, 40.62989]]]}, "properties": {"PARCEL_ID": "34-02590-000", "Listed_Name": "WILKSHIRE HILLS HOLDINGS LLC", "Location_Address": "WILKSHIRE BLVD", "Acres": 30.53, "SUR_ACRE": 30.5302, "Land_Use": "110-AGRICULTURAL VACANT LAND \"QUALIFIED FOR CURRENT AGRICULTURAL USE VALUE\"", "District": "34-LAWRENCE TWP-TUSC VALLEY SD", "Appraised_Total_100": 224400, "Legal_Description": "2 10 1 5 ZOAR SD 30.5302A", "owner_group": "wilkshire", "owner": "WILKSHIRE HILLS HOLDINGS LLC", "address": "WILKSHIRE BLVD", "acres": 30.53, "land_use": "110-AGRICULTURAL VACANT LAND \"QUALIFIED FOR CURRENT AGRICULTURAL USE VALUE\"", "appraised": 224400}}, {"type": "Feature", "geometry": {"type": "Polygon", "coordinates": [[[-81.44226, 40.631386], [-81.442284, 40.631386], [-81.442308, 40.631383], [-81.442331, 40.631377], [-81.442352, 40.631368], [-81.44237, 40.631356], [-81.442386, 40.631343], [-81.442399, 40.631327], [-81.442408, 40.63131], [-81.442413, 40.631292], [-81.442415, 40.631274], [-81.442393, 40.630926], [-81.442345, 40.630538], [-81.442271, 40.630153], [-81.437405, 40.62989], [-81.437276, 40.630115], [-81.437174, 40.630348], [-81.437099, 40.630586], [-81.437048, 40.630862], [-81.437152, 40.631112], [-81.437153, 40.631112], [-81.437268, 40.631118], [-81.44226, 40.631386]]]}, "properties": {"PARCEL_ID": "34-02593-000", "Listed_Name": "WILKSHIRE HILLS HOLDINGS LLC", "Location_Address": "WILKSHIRE BLVD", "Acres": 15.59, "SUR_ACRE": 15.5889, "Land_Use": "110-AGRICULTURAL VACANT LAND \"QUALIFIED FOR CURRENT AGRICULTURAL USE VALUE\"", "District": "34-LAWRENCE TWP-TUSC VALLEY SD", "Appraised_Total_100": 113950, "Legal_Description": "2 10 1 4 ZOAR SD 15.5889A", "owner_group": "wilkshire", "owner": "WILKSHIRE HILLS HOLDINGS LLC", "address": "WILKSHIRE BLVD", "acres": 15.59, "land_use": "110-AGRICULTURAL VACANT LAND \"QUALIFIED FOR CURRENT AGRICULTURAL USE VALUE\"", "appraised": 113950}}, {"type": "Feature", "geometry": {"type": "Polygon", "coordinates": [[[-81.444872, 40.631529], [-81.446582, 40.631623], [-81.44631, 40.631137], [-81.446125, 40.630805], [-81.445943, 40.629767], [-81.445935, 40.629723], [-81.446348, 40.62838], [-81.446369, 40.628312], [-81.446054, 40.626682], [-81.44463, 40.626607], [-81.444518, 40.627822], [-81.445213, 40.627859], [-81.445073, 40.629361], [-81.444872, 40.631529]]]}, "properties": {"PARCEL_ID": "34-02710-000", "Listed_Name": "WILKSHIRE HILLS HOLDINGS LLC", "Location_Address": "WILKSHIRE BLVD", "Acres": 14.27, "SUR_ACRE": 14.2678, "Land_Use": "110-AGRICULTURAL VACANT LAND \"QUALIFIED FOR CURRENT AGRICULTURAL USE VALUE\"", "District": "34-LAWRENCE TWP-TUSC VALLEY SD", "Appraised_Total_100": 104870, "Legal_Description": "2 10 1 3-4-5-6 ZOAR SD 14.2678A", "owner_group": "wilkshire", "owner": "WILKSHIRE HILLS HOLDINGS LLC", "address": "WILKSHIRE BLVD", "acres": 14.27, "land_use": "110-AGRICULTURAL VACANT LAND \"QUALIFIED FOR CURRENT AGRICULTURAL USE VALUE\"", "appraised": 104870}}, {"type": "Feature", "geometry": {"type": "Polygon", "coordinates": [[[-81.420349, 40.635807], [-81.421505, 40.635822], [-81.42146, 40.635653], [-81.421332, 40.635128], [-81.421215, 40.634648], [-81.421511, 40.634427], [-81.421807, 40.634206], [-81.422103, 40.633985], [-81.422413, 40.633637], [-81.42193, 40.633386], [-81.421804, 40.633287], [-81.421864, 40.633243], [-81.421908, 40.633207], [-81.421919, 40.633196], [-81.421927, 40.633183], [-81.421932, 40.63317], [-81.421934, 40.633157], [-81.421933, 40.633143], [-81.421929, 40.63313], [-81.421921, 40.633117], [-81.421911, 40.633106], [-81.421899, 40.633096], [-81.421885, 40.633087], [-81.421869, 40.633081], [-81.421851, 40.633077], [-81.421834, 40.633076], [-81.421828, 40.633076], [-81.421707, 40.63307], [-81.421587, 40.633056], [-81.42162, 40.632998], [-81.421512, 40.632978], [-81.421407, 40.63295], [-81.42071, 40.632743], [-81.420421, 40.632656], [-81.419779, 40.632465], [-81.419689, 40.632438], [-81.419612, 40.632382], [-81.41961, 40.63247], [-81.419576, 40.633988], [-81.419547, 40.635335], [-81.419613, 40.635357], [-81.419538, 40.635726], [-81.419536, 40.6358], [-81.419717, 40.635802], [-81.420349, 40.635807]]]}, "properties": {"PARCEL_ID": "34-02797-000", "Listed_Name": "KRIZMAN ENTERPRISES -A PARTNERSHIP", "Location_Address": "NE OLD TRAIL RD", "Acres": 15.69, "SUR_ACRE": 15.692, "Land_Use": "100-AGRICULTURAL VACANT LAND", "District": "34-LAWRENCE TWP-TUSC VALLEY SD", "Appraised_Total_100": 174030, "Legal_Description": "2 10 1 20 ZOAR SD 15.3692A EXCEPT OIL GAS AND MINERALS", "owner_group": "krizman", "owner": "KRIZMAN ENTERPRISES -A PARTNERSHIP", "address": "NE OLD TRAIL RD", "acres": 15.69, "land_use": "100-AGRICULTURAL VACANT LAND", "appraised": 174030}}, {"type": "Feature", "geometry": {"type": "Polygon", "coordinates": [[[-81.438391, 40.624274], [-81.438448, 40.624321], [-81.439098, 40.623916], [-81.438896, 40.623741], [-81.439498, 40.623212], [-81.439523, 40.623189], [-81.439463, 40.623146], [-81.43884, 40.623694], [-81.438786, 40.623741], [-81.438979, 40.623909], [-81.438391, 40.624274]]]}, "properties": {"PARCEL_ID": "34-03220-001", "Listed_Name": "KRIZMAN ENTERPRISES A PARTNERSHIP", "Location_Address": "WILKSHIRE BLVD", "Acres": 0.18, "SUR_ACRE": 0.18, "Land_Use": "400-COMMERCIAL - VACANT LAND", "District": "34-LAWRENCE TWP-TUSC VALLEY SD", "Appraised_Total_100": 1660, "Legal_Description": "2 10 1 8 ZOAR SD .1814A", "owner_group": "krizman", "owner": "KRIZMAN ENTERPRISES A PARTNERSHIP", "address": "WILKSHIRE BLVD", "acres": 0.18, "land_use": "400-COMMERCIAL - VACANT LAND", "appraised": 1660}}, {"type": "Feature", "geometry": {"type": "Polygon", "coordinates": [[[-81.42264, 40.617688], [-81.422366, 40.617918], [-81.422017, 40.618381], [-81.421475, 40.619098], [-81.421868, 40.619372], [-81.422391, 40.619736], [-81.423839, 40.618512], [-81.423907, 40.618454], [-81.422713, 40.617627], [-81.42264, 40.617688]]]}, "properties": {"PARCEL_ID": "34-03308-000", "Listed_Name": "KRIZMAN ENTERPRISES -A PARTNERSHIP", "Location_Address": "STATE ROUTE 212", "Acres": 5.87, "SUR_ACRE": 5.87, "Land_Use": "400-COMMERCIAL - VACANT LAND", "District": "34-LAWRENCE TWP-TUSC VALLEY SD", "Appraised_Total_100": 94510, "Legal_Description": "2 10 4 21 ZOAR SD 5.8717A", "owner_group": "krizman", "owner": "KRIZMAN ENTERPRISES -A PARTNERSHIP", "address": "STATE ROUTE 212", "acres": 5.87, "land_use": "400-COMMERCIAL - VACANT LAND", "appraised": 94510}}, {"type": "Feature", "geometry": {"type": "Polygon", "coordinates": [[[-81.422427, 40.621872], [-81.423214, 40.62191], [-81.423224, 40.621773], [-81.423235, 40.621637], [-81.423257, 40.621363], [-81.424048, 40.621368], [-81.424049, 40.621286], [-81.423416, 40.621209], [-81.423447, 40.620994], [-81.42348, 40.620717], [-81.423507, 40.62045], [-81.424058, 40.620517], [-81.424059, 40.620448], [-81.423294, 40.620364], [-81.422422, 40.621369], [-81.42201, 40.621851], [-81.422427, 40.621872]]]}, "properties": {"PARCEL_ID": "34-03309-000", "Listed_Name": "KRIZMAN ENTERPRISES -A PARTNERSHIP", "Location_Address": "NE BIMELER ST", "Acres": 2.86, "SUR_ACRE": 2.86, "Land_Use": "501-RESIDENTIAL VACANT LAND - UNPLATTED 0 - 9.99 ACRES", "District": "34-LAWRENCE TWP-TUSC VALLEY SD", "Appraised_Total_100": 83420, "Legal_Description": "2 10 4 21 ZOAR SD 2.8606A", "owner_group": "krizman", "owner": "KRIZMAN ENTERPRISES -A PARTNERSHIP", "address": "NE BIMELER ST", "acres": 2.86, "land_use": "501-RESIDENTIAL VACANT LAND - UNPLATTED 0 - 9.99 ACRES", "appraised": 83420}}, {"type": "Feature", "geometry": {"type": "Polygon", "coordinates": [[[-81.434817, 40.635257], [-81.434947, 40.635352], [-81.435275, 40.635094], [-81.435081, 40.634951], [-81.434811, 40.634954], [-81.434817, 40.635257]]]}, "properties": {"PARCEL_ID": "34-03315-000", "Listed_Name": "KRIZMAN ENTERPRISES -A PARTNERSHIP", "Location_Address": "NE KERNS DR", "Acres": 0.28, "SUR_ACRE": 0.28, "Land_Use": "501-RESIDENTIAL VACANT LAND - UNPLATTED 0 - 9.99 ACRES", "District": "34-LAWRENCE TWP-TUSC VALLEY SD", "Appraised_Total_100": 6740, "Legal_Description": "2 10 1 .2828A", "owner_group": "krizman", "owner": "KRIZMAN ENTERPRISES -A PARTNERSHIP", "address": "NE KERNS DR", "acres": 0.28, "land_use": "501-RESIDENTIAL VACANT LAND - UNPLATTED 0 - 9.99 ACRES", "appraised": 6740}}, {"type": "Feature", "geometry": {"type": "Polygon", "coordinates": [[[-81.438176, 40.638786], [-81.438257, 40.638852], [-81.438258, 40.638852], [-81.438277, 40.638827], [-81.438341, 40.638741], [-81.438685, 40.638289], [-81.438718, 40.63824], [-81.438779, 40.638133], [-81.438839, 40.637988], [-81.438882, 40.637863], [-81.439303, 40.637948], [-81.43932, 40.637951], [-81.439312, 40.637938], [-81.439228, 40.637811], [-81.438967, 40.637418], [-81.439054, 40.637337], [-81.439595, 40.637221], [-81.439697, 40.6372], [-81.439634, 40.637014], [-81.43855, 40.636703], [-81.438351, 40.636753], [-81.437327, 40.637012], [-81.437304, 40.63702], [-81.437283, 40.63703], [-81.437265, 40.637044], [-81.43725, 40.637059], [-81.437239, 40.637076], [-81.437232, 40.637094], [-81.437229, 40.637113], [-81.43723, 40.637132], [-81.437236, 40.637151], [-81.43762, 40.638033], [-81.437695, 40.638245], [-81.437815, 40.638445], [-81.437977, 40.638627], [-81.438176, 40.638786]]]}, "properties": {"PARCEL_ID": "34-03318-000", "Listed_Name": "KRIZMAN ENTERPRISES -A PARTNERSHIP", "Location_Address": "STATE ROUTE 212", "Acres": 6.35, "SUR_ACRE": 6.3505, "Land_Use": "110-AGRICULTURAL VACANT LAND \"QUALIFIED FOR CURRENT AGRICULTURAL USE VALUE\"", "District": "34-LAWRENCE TWP-TUSC VALLEY SD", "Appraised_Total_100": 44040, "Legal_Description": "2 10 1 6.3505A", "owner_group": "krizman", "owner": "KRIZMAN ENTERPRISES -A PARTNERSHIP", "address": "STATE ROUTE 212", "acres": 6.35, "land_use": "110-AGRICULTURAL VACANT LAND \"QUALIFIED FOR CURRENT AGRICULTURAL USE VALUE\"", "appraised": 44040}}, {"type": "Feature", "geometry": {"type": "Polygon", "coordinates": [[[-81.444406, 40.639749], [-81.444987, 40.640293], [-81.445135, 40.639997], [-81.445135, 40.639997], [-81.444706, 40.639597], [-81.444406, 40.639749]]]}, "properties": {"PARCEL_ID": "34-03325-000", "Listed_Name": "KRIZMAN ENTERPRISES -A PARTNERSHIP", "Location_Address": "WILKSHIRE BLVD", "Acres": 0.49, "SUR_ACRE": 0.492, "Land_Use": "400-COMMERCIAL - VACANT LAND", "District": "34-LAWRENCE TWP-TUSC VALLEY SD", "Appraised_Total_100": 1100, "Legal_Description": "2 10 1 .4923A (LEBOLD)", "owner_group": "krizman", "owner": "KRIZMAN ENTERPRISES -A PARTNERSHIP", "address": "WILKSHIRE BLVD", "acres": 0.49, "land_use": "400-COMMERCIAL - VACANT LAND", "appraised": 1100}}, {"type": "Feature", "geometry": {"type": "Polygon", "coordinates": [[[-81.443897, 40.63907], [-81.444406, 40.639749], [-81.444706, 40.639597], [-81.444707, 40.639597], [-81.444945, 40.639476], [-81.444582, 40.638796], [-81.443897, 40.63907]]]}, "properties": {"PARCEL_ID": "34-03327-000", "Listed_Name": "KRIZMAN ENTERPRISES -A PARTNERSHIP", "Location_Address": "10804 NE WILKSHIRE BLVD", "Acres": 1.26, "SUR_ACRE": 1.2587, "Land_Use": "447-OFFICE BUILDINGS - 1 AND 2 STORIES", "District": "34-LAWRENCE TWP-TUSC VALLEY SD", "Appraised_Total_100": 287600, "Legal_Description": "2 10 1 1.2587A", "owner_group": "krizman", "owner": "KRIZMAN ENTERPRISES -A PARTNERSHIP", "address": "10804 NE WILKSHIRE BLVD", "acres": 1.26, "land_use": "447-OFFICE BUILDINGS - 1 AND 2 STORIES", "appraised": 287600}}, {"type": "Feature", "geometry": {"type": "Polygon", "coordinates": [[[-81.440068, 40.636201], [-81.440156, 40.636408], [-81.441142, 40.636284], [-81.442275, 40.636277], [-81.442274, 40.636057], [-81.441142, 40.636065], [-81.440068, 40.636201]]]}, "properties": {"PARCEL_ID": "34-03332-000", "Listed_Name": "KRIZMAN ENTERPRISES -A PARTNERSHIP", "Location_Address": "WILKSHIRE BLVD", "Acres": 1.32, "SUR_ACRE": 1.3176, "Land_Use": "110-AGRICULTURAL VACANT LAND \"QUALIFIED FOR CURRENT AGRICULTURAL USE VALUE\"", "District": "34-LAWRENCE TWP-TUSC VALLEY SD", "Appraised_Total_100": 9680, "Legal_Description": "2 10 1 1.3176A", "owner_group": "krizman", "owner": "KRIZMAN ENTERPRISES -A PARTNERSHIP", "address": "WILKSHIRE BLVD", "acres": 1.32, "land_use": "110-AGRICULTURAL VACANT LAND \"QUALIFIED FOR CURRENT AGRICULTURAL USE VALUE\"", "appraised": 9680}}, {"type": "Feature", "geometry": {"type": "MultiPolygon", "coordinates": [[[[-81.438382, 40.634082], [-81.438856, 40.635196], [-81.43896, 40.635172], [-81.440325, 40.63485], [-81.441354, 40.634857], [-81.442421, 40.634865], [-81.442418, 40.634317], [-81.442418, 40.634187], [-81.442418, 40.633804], [-81.442418, 40.633745], [-81.442418, 40.633473], [-81.438153, 40.633237], [-81.438018, 40.63323], [-81.438382, 40.634082]]], [[[-81.441212, 40.635964], [-81.440806, 40.635968], [-81.440402, 40.635995], [-81.440002, 40.636045], [-81.440068, 40.636201], [-81.441142, 40.636065], [-81.442274, 40.636057], [-81.442298, 40.636056], [-81.44232, 40.636051], [-81.442342, 40.636044], [-81.442361, 40.636035], [-81.442379, 40.636023], [-81.442393, 40.636009], [-81.442382, 40.636002], [-81.44237, 40.635996], [-81.442357, 40.635992], [-81.442343, 40.635989], [-81.442328, 40.635988], [-81.441212, 40.635964]]]]}, "properties": {"PARCEL_ID": "34-03333-000", "Listed_Name": "KRIZMAN ENTERPRISES -A PARTNERSHIP", "Location_Address": "STATE ROUTE 212", "Acres": 15.27, "SUR_ACRE": 15.272, "Land_Use": "110-AGRICULTURAL VACANT LAND \"QUALIFIED FOR CURRENT AGRICULTURAL USE VALUE\"", "District": "34-LAWRENCE TWP-TUSC VALLEY SD", "Appraised_Total_100": 108480, "Legal_Description": "2 10 1 15.272A (BUEHLER)", "owner_group": "krizman", "owner": "KRIZMAN ENTERPRISES -A PARTNERSHIP", "address": "STATE ROUTE 212", "acres": 15.27, "land_use": "110-AGRICULTURAL VACANT LAND \"QUALIFIED FOR CURRENT AGRICULTURAL USE VALUE\"", "appraised": 108480}}, {"type": "Feature", "geometry": {"type": "Polygon", "coordinates": [[[-81.447618, 40.641872], [-81.448445, 40.642197], [-81.448708, 40.642011], [-81.447763, 40.64164], [-81.447632, 40.641586], [-81.447417, 40.641492], [-81.446916, 40.641247], [-81.446437, 40.640977], [-81.446437, 40.640977], [-81.446058, 40.640733], [-81.445804, 40.640552], [-81.445699, 40.640473], [-81.445629, 40.640419], [-81.445459, 40.640282], [-81.445135, 40.639997], [-81.445135, 40.639997], [-81.444987, 40.640293], [-81.445445, 40.64067], [-81.44594, 40.641018], [-81.446469, 40.641336], [-81.44703, 40.641621], [-81.447618, 40.641872]]]}, "properties": {"PARCEL_ID": "34-03337-000", "Listed_Name": "KRIZMAN ENTERPRISES -A PARTNERSHIP", "Location_Address": "WILKSHIRE BLVD", "Acres": 2.88, "SUR_ACRE": 2.88, "Land_Use": "400-COMMERCIAL - VACANT LAND", "District": "34-LAWRENCE TWP-TUSC VALLEY SD", "Appraised_Total_100": 6460, "Legal_Description": "2 10 1 2.8805A (ZIMMERMAN)", "owner_group": "krizman", "owner": "KRIZMAN ENTERPRISES -A PARTNERSHIP", "address": "WILKSHIRE BLVD", "acres": 2.88, "land_use": "400-COMMERCIAL - VACANT LAND", "appraised": 6460}}, {"type": "Feature", "geometry": {"type": "Polygon", "coordinates": [[[-81.438712, 40.639439], [-81.439001, 40.639539], [-81.439302, 40.639615], [-81.439613, 40.639666], [-81.439929, 40.639691], [-81.440078, 40.639481], [-81.439654, 40.639439], [-81.439239, 40.639358], [-81.43884, 40.639241], [-81.438712, 40.639439]]]}, "properties": {"PARCEL_ID": "34-03342-000", "Listed_Name": "KRIZMAN ENTERPRISES -A PARTNERSHIP", "Location_Address": "WILKSHIRE BLVD", "Acres": 0.73, "SUR_ACRE": 0.734, "Land_Use": "400-COMMERCIAL - VACANT LAND", "District": "34-LAWRENCE TWP-TUSC VALLEY SD", "Appraised_Total_100": 4090, "Legal_Description": "2 10 1 .7348A (G LEBOLD)", "owner_group": "krizman", "owner": "KRIZMAN ENTERPRISES -A PARTNERSHIP", "address": "WILKSHIRE BLVD", "acres": 0.73, "land_use": "400-COMMERCIAL - VACANT LAND", "appraised": 4090}}, {"type": "Feature", "geometry": {"type": "Polygon", "coordinates": [[[-81.438166, 40.622205], [-81.438244, 40.622262], [-81.438691, 40.622256], [-81.436228, 40.620617], [-81.435739, 40.620769], [-81.436293, 40.620847], [-81.437539, 40.62175], [-81.437822, 40.621956], [-81.438166, 40.622205]]]}, "properties": {"PARCEL_ID": "34-03377-000", "Listed_Name": "KRIZMAN ENTERPRISES INC - A PARTNERSHIP", "Location_Address": "NE HESS MILL RD", "Acres": 1.4, "SUR_ACRE": 1.4, "Land_Use": "400-COMMERCIAL - VACANT LAND", "District": "34-LAWRENCE TWP-TUSC VALLEY SD", "Appraised_Total_100": 3860, "Legal_Description": "2 10 4 9 ZOAR SD 1.4027A", "owner_group": "krizman", "owner": "KRIZMAN ENTERPRISES INC - A PARTNERSHIP", "address": "NE HESS MILL RD", "acres": 1.4, "land_use": "400-COMMERCIAL - VACANT LAND", "appraised": 3860}}, {"type": "Feature", "geometry": {"type": "Polygon", "coordinates": [[[-81.435081, 40.634951], [-81.435275, 40.635094], [-81.435526, 40.634897], [-81.435225, 40.634674], [-81.434805, 40.63468], [-81.434811, 40.634954], [-81.435081, 40.634951]]]}, "properties": {"PARCEL_ID": "34-03516-000", "Listed_Name": "KRIZMAN ENTERPRISES INC", "Location_Address": "NE KERNS DR", "Acres": 0.44, "SUR_ACRE": 0.439, "Land_Use": "501-RESIDENTIAL VACANT LAND - UNPLATTED 0 - 9.99 ACRES", "District": "34-LAWRENCE TWP-TUSC VALLEY SD", "Appraised_Total_100": 10590, "Legal_Description": "2 10 1 .4393A (WM KERNS)", "owner_group": "krizman", "owner": "KRIZMAN ENTERPRISES INC", "address": "NE KERNS DR", "acres": 0.44, "land_use": "501-RESIDENTIAL VACANT LAND - UNPLATTED 0 - 9.99 ACRES", "appraised": 10590}}, {"type": "Feature", "geometry": {"type": "Polygon", "coordinates": [[[-81.441987, 40.628145], [-81.442242, 40.628615], [-81.442458, 40.629097], [-81.442633, 40.629588], [-81.445073, 40.629361], [-81.445213, 40.627859], [-81.444518, 40.627822], [-81.443988, 40.627793], [-81.443817, 40.627673], [-81.443609, 40.627845], [-81.443517, 40.62791], [-81.443413, 40.627964], [-81.443299, 40.628004], [-81.443179, 40.628031], [-81.443054, 40.628043], [-81.442693, 40.628057], [-81.442594, 40.628055], [-81.442496, 40.628041], [-81.442402, 40.628015], [-81.442315, 40.627979], [-81.442237, 40.627932], [-81.442008, 40.627774], [-81.441986, 40.627761], [-81.441961, 40.627751], [-81.441934, 40.627744], [-81.441906, 40.627742], [-81.441878, 40.627743], [-81.44185, 40.627747], [-81.441824, 40.627756], [-81.441755, 40.627778], [-81.441987, 40.628145]]]}, "properties": {"PARCEL_ID": "34-03527-000", "Listed_Name": "WILKSHIRE HILLS HOLDINGS LLC", "Location_Address": "WILKSHIRE BLVD", "Acres": 10.63, "SUR_ACRE": 10.6287, "Land_Use": "110-AGRICULTURAL VACANT LAND \"QUALIFIED FOR CURRENT AGRICULTURAL USE VALUE\"", "District": "34-LAWRENCE TWP-TUSC VALLEY SD", "Appraised_Total_100": 78120, "Legal_Description": "2 10 1 5-6 ZOAR SD 10.6287A", "owner_group": "wilkshire", "owner": "WILKSHIRE HILLS HOLDINGS LLC", "address": "WILKSHIRE BLVD", "acres": 10.63, "land_use": "110-AGRICULTURAL VACANT LAND \"QUALIFIED FOR CURRENT AGRICULTURAL USE VALUE\"", "appraised": 78120}}, {"type": "Feature", "geometry": {"type": "Polygon", "coordinates": [[[-81.425261, 40.637183], [-81.425552, 40.637483], [-81.425717, 40.637395], [-81.425424, 40.637093], [-81.425843, 40.636861], [-81.426222, 40.636651], [-81.426493, 40.637088], [-81.426542, 40.63707], [-81.426266, 40.636626], [-81.426519, 40.636487], [-81.426172, 40.636303], [-81.425534, 40.635966], [-81.42521, 40.635949], [-81.424614, 40.635916], [-81.424069, 40.636276], [-81.423844, 40.636425], [-81.423546, 40.636409], [-81.423248, 40.636393], [-81.423239, 40.636476], [-81.423191, 40.636984], [-81.423428, 40.636997], [-81.423608, 40.637007], [-81.42416, 40.637037], [-81.424385, 40.636856], [-81.424725, 40.636632], [-81.424833, 40.636742], [-81.425261, 40.637183]]]}, "properties": {"PARCEL_ID": "34-03567-020", "Listed_Name": "WILKSHIRE HILLS HOLDINGS LLC", "Location_Address": "NE BUEHLER RD", "Acres": 5.79, "SUR_ACRE": 5.792, "Land_Use": "110-AGRICULTURAL VACANT LAND \"QUALIFIED FOR CURRENT AGRICULTURAL USE VALUE\"", "District": "34-LAWRENCE TWP-TUSC VALLEY SD", "Appraised_Total_100": 51080, "Legal_Description": "2 10 1 5.792A", "owner_group": "wilkshire", "owner": "WILKSHIRE HILLS HOLDINGS LLC", "address": "NE BUEHLER RD", "acres": 5.79, "land_use": "110-AGRICULTURAL VACANT LAND \"QUALIFIED FOR CURRENT AGRICULTURAL USE VALUE\"", "appraised": 51080}}, {"type": "Feature", "geometry": {"type": "Polygon", "coordinates": [[[-81.43762, 40.638744], [-81.437763, 40.638754], [-81.438176, 40.638786], [-81.437977, 40.638627], [-81.437815, 40.638445], [-81.437695, 40.638245], [-81.43762, 40.638033], [-81.437236, 40.637151], [-81.43723, 40.637132], [-81.437229, 40.637113], [-81.437232, 40.637094], [-81.437239, 40.637076], [-81.43725, 40.637059], [-81.437265, 40.637044], [-81.437283, 40.63703], [-81.437304, 40.63702], [-81.437327, 40.637012], [-81.438351, 40.636753], [-81.43855, 40.636703], [-81.438209, 40.636605], [-81.437419, 40.636387], [-81.436537, 40.636118], [-81.436547, 40.636212], [-81.436613, 40.636562], [-81.436657, 40.636707], [-81.436719, 40.636849], [-81.436725, 40.636867], [-81.436726, 40.636886], [-81.436723, 40.636905], [-81.436716, 40.636924], [-81.436705, 40.636941], [-81.43669, 40.636956], [-81.436671, 40.636969], [-81.436651, 40.63698], [-81.436628, 40.636988], [-81.436387, 40.637033], [-81.436141, 40.637058], [-81.435893, 40.63706], [-81.434151, 40.636979], [-81.433678, 40.636935], [-81.433933, 40.63642], [-81.434175, 40.63595], [-81.433799, 40.635957], [-81.433225, 40.635879], [-81.433115, 40.636196], [-81.432782, 40.63692], [-81.432263, 40.636781], [-81.432099, 40.637135], [-81.432046, 40.637291], [-81.432028, 40.637452], [-81.432046, 40.637613], [-81.4321, 40.637769], [-81.432188, 40.637916], [-81.432308, 40.638049], [-81.432455, 40.638165], [-81.432626, 40.63826], [-81.432816, 40.638332], [-81.433019, 40.638378], [-81.433229, 40.638397], [-81.433225, 40.638534], [-81.433852, 40.638545], [-81.434978, 40.638553], [-81.436819, 40.638682], [-81.437154, 40.638708], [-81.437208, 40.638712], [-81.437262, 40.638716], [-81.43762, 40.638744]]]}, "properties": {"PARCEL_ID": "34-03567-021", "Listed_Name": "WILKSHIRE HILLS HOLDINGS LLC", "Location_Address": "NE KERNS DR", "Acres": 24.01, "SUR_ACRE": 24.006, "Land_Use": "110-AGRICULTURAL VACANT LAND \"QUALIFIED FOR CURRENT AGRICULTURAL USE VALUE\"", "District": "34-LAWRENCE TWP-TUSC VALLEY SD", "Appraised_Total_100": 172740, "Legal_Description": "2 10 1 24.006A", "owner_group": "wilkshire", "owner": "WILKSHIRE HILLS HOLDINGS LLC", "address": "NE KERNS DR", "acres": 24.01, "land_use": "110-AGRICULTURAL VACANT LAND \"QUALIFIED FOR CURRENT AGRICULTURAL USE VALUE\"", "appraised": 172740}}, {"type": "Feature", "geometry": {"type": "Polygon", "coordinates": [[[-81.431041, 40.637855], [-81.431808, 40.638864], [-81.432386, 40.638305], [-81.432223, 40.63819], [-81.432086, 40.638058], [-81.431978, 40.63791], [-81.431901, 40.637752], [-81.431857, 40.637587], [-81.431847, 40.637418], [-81.431872, 40.637251], [-81.43193, 40.637088], [-81.432171, 40.636567], [-81.432109, 40.63655], [-81.431795, 40.636469], [-81.431262, 40.636357], [-81.431266, 40.63599], [-81.431271, 40.635517], [-81.430888, 40.635511], [-81.430505, 40.635505], [-81.430501, 40.635888], [-81.430177, 40.635845], [-81.430173, 40.636219], [-81.430172, 40.636412], [-81.430565, 40.636447], [-81.430808, 40.636958], [-81.431034, 40.637434], [-81.431055, 40.637763], [-81.431041, 40.637855]]]}, "properties": {"PARCEL_ID": "34-03567-022", "Listed_Name": "WILKSHIRE HILLS HOLDINGS LLC", "Location_Address": "NE KERNS DR", "Acres": 7.16, "SUR_ACRE": 7.158, "Land_Use": "110-AGRICULTURAL VACANT LAND \"QUALIFIED FOR CURRENT AGRICULTURAL USE VALUE\"", "District": "34-LAWRENCE TWP-TUSC VALLEY SD", "Appraised_Total_100": 52610, "Legal_Description": "2 10 1 7.158A", "owner_group": "wilkshire", "owner": "WILKSHIRE HILLS HOLDINGS LLC", "address": "NE KERNS DR", "acres": 7.16, "land_use": "110-AGRICULTURAL VACANT LAND \"QUALIFIED FOR CURRENT AGRICULTURAL USE VALUE\"", "appraised": 52610}}, {"type": "Feature", "geometry": {"type": "Polygon", "coordinates": [[[-81.435869, 40.641541], [-81.437052, 40.641974], [-81.437279, 40.64163], [-81.436321, 40.641301], [-81.436003, 40.641211], [-81.435672, 40.641152], [-81.435335, 40.641125], [-81.434996, 40.64113], [-81.43466, 40.641168], [-81.435869, 40.641541]]]}, "properties": {"PARCEL_ID": "34-03567-023", "Listed_Name": "WILKSHIRE HILLS HOLDINGS LLC", "Location_Address": "NE NORTH ORCHARD RD", "Acres": 1.87, "SUR_ACRE": 1.871, "Land_Use": "110-AGRICULTURAL VACANT LAND \"QUALIFIED FOR CURRENT AGRICULTURAL USE VALUE\"", "District": "34-LAWRENCE TWP-TUSC VALLEY SD", "Appraised_Total_100": 13750, "Legal_Description": "2 10 1 1.871A", "owner_group": "wilkshire", "owner": "WILKSHIRE HILLS HOLDINGS LLC", "address": "NE NORTH ORCHARD RD", "acres": 1.87, "land_use": "110-AGRICULTURAL VACANT LAND \"QUALIFIED FOR CURRENT AGRICULTURAL USE VALUE\"", "appraised": 13750}}, {"type": "Feature", "geometry": {"type": "Polygon", "coordinates": [[[-81.433498, 40.640815], [-81.434265, 40.641046], [-81.434648, 40.640961], [-81.435042, 40.640917], [-81.435441, 40.640916], [-81.435836, 40.640956], [-81.435952, 40.640611], [-81.435998, 40.640478], [-81.436014, 40.640481], [-81.43605, 40.640166], [-81.436343, 40.640213], [-81.436456, 40.639895], [-81.436503, 40.639762], [-81.436529, 40.639766], [-81.436616, 40.639458], [-81.436466, 40.639434], [-81.436525, 40.639107], [-81.436549, 40.638971], [-81.436734, 40.638997], [-81.436768, 40.63887], [-81.436805, 40.638734], [-81.436819, 40.638682], [-81.434978, 40.638553], [-81.433852, 40.638545], [-81.433883, 40.638675], [-81.433915, 40.638812], [-81.43404, 40.639348], [-81.432654, 40.639322], [-81.43228, 40.639119], [-81.432133, 40.63904], [-81.432137, 40.639484], [-81.432146, 40.640406], [-81.43257, 40.640534], [-81.433498, 40.640815]]]}, "properties": {"PARCEL_ID": "34-03567-024", "Listed_Name": "WILKSHIRE HILLS HOLDINGS LLC", "Location_Address": "NE NORTH ORCHARD RD", "Acres": 19.3, "SUR_ACRE": 19.295, "Land_Use": "110-AGRICULTURAL VACANT LAND \"QUALIFIED FOR CURRENT AGRICULTURAL USE VALUE\"", "District": "34-LAWRENCE TWP-TUSC VALLEY SD", "Appraised_Total_100": 141820, "Legal_Description": "2 10 1 19.295A", "owner_group": "wilkshire", "owner": "WILKSHIRE HILLS HOLDINGS LLC", "address": "NE NORTH ORCHARD RD", "acres": 19.3, "land_use": "110-AGRICULTURAL VACANT LAND \"QUALIFIED FOR CURRENT AGRICULTURAL USE VALUE\"", "appraised": 141820}}, {"type": "Feature", "geometry": {"type": "Polygon", "coordinates": [[[-81.44292, 40.632845], [-81.442921, 40.633506], [-81.444552, 40.633596], [-81.444677, 40.633603], [-81.444682, 40.633552], [-81.444764, 40.633558], [-81.444822, 40.632944], [-81.44474, 40.63294], [-81.443853, 40.632897], [-81.44292, 40.632845]]]}, "properties": {"PARCEL_ID": "34-03587-000", "Listed_Name": "WILKSHIRE HILLS HOLDINGS LLC", "Location_Address": "WILKSHIRE BLVD", "Acres": 2.86, "SUR_ACRE": 2.859, "Land_Use": "100-AGRICULTURAL VACANT LAND", "District": "34-LAWRENCE TWP-TUSC VALLEY SD", "Appraised_Total_100": 10510, "Legal_Description": "2 10 1 3 ZOAR SD 2.859A", "owner_group": "wilkshire", "owner": "WILKSHIRE HILLS HOLDINGS LLC", "address": "WILKSHIRE BLVD", "acres": 2.86, "land_use": "100-AGRICULTURAL VACANT LAND", "appraised": 10510}}, {"type": "Feature", "geometry": {"type": "Polygon", "coordinates": [[[-81.44292, 40.632845], [-81.443853, 40.632897], [-81.443966, 40.631705], [-81.443033, 40.631654], [-81.443031, 40.631654], [-81.443028, 40.631654], [-81.443012, 40.631654], [-81.442996, 40.631656], [-81.44298, 40.631661], [-81.442966, 40.631667], [-81.442953, 40.631675], [-81.442942, 40.631684], [-81.442933, 40.631694], [-81.442926, 40.631705], [-81.442922, 40.631717], [-81.44292, 40.63173], [-81.44292, 40.632845]]]}, "properties": {"PARCEL_ID": "34-03587-001", "Listed_Name": "WILKSHIRE HILLS HOLDINGS LLC", "Location_Address": "WILKSHIRE BLVD", "Acres": 2.75, "SUR_ACRE": 2.747, "Land_Use": "100-AGRICULTURAL VACANT LAND", "District": "34-LAWRENCE TWP-TUSC VALLEY SD", "Appraised_Total_100": 10100, "Legal_Description": "2 10 1 3 ZOAR SD 2.747A", "owner_group": "wilkshire", "owner": "WILKSHIRE HILLS HOLDINGS LLC", "address": "WILKSHIRE BLVD", "acres": 2.75, "land_use": "100-AGRICULTURAL VACANT LAND", "appraised": 10100}}, {"type": "Feature", "geometry": {"type": "Polygon", "coordinates": [[[-81.428855, 40.636351], [-81.428923, 40.636421], [-81.428975, 40.63641], [-81.428957, 40.636329], [-81.428855, 40.636351]]]}, "properties": {"PARCEL_ID": "34-03593-002", "Listed_Name": "WILKSHIRE HILLS HOLDINGS LLC", "Location_Address": "NE BUEHELER RD", "Acres": 0.02, "SUR_ACRE": 0.015, "Land_Use": "501-RESIDENTIAL VACANT LAND - UNPLATTED 0 - 9.99 ACRES", "District": "34-LAWRENCE TWP-TUSC VALLEY SD", "Appraised_Total_100": 140, "Legal_Description": "2 10 1 .0153A", "owner_group": "wilkshire", "owner": "WILKSHIRE HILLS HOLDINGS LLC", "address": "NE BUEHELER RD", "acres": 0.02, "land_use": "501-RESIDENTIAL VACANT LAND - UNPLATTED 0 - 9.99 ACRES", "appraised": 140}}, {"type": "Feature", "geometry": {"type": "Polygon", "coordinates": [[[-81.428652, 40.636974], [-81.428689, 40.637212], [-81.42869, 40.637203], [-81.428692, 40.637195], [-81.428696, 40.637186], [-81.428701, 40.637179], [-81.428708, 40.637172], [-81.428717, 40.637166], [-81.428726, 40.637162], [-81.428736, 40.637158], [-81.428747, 40.637156], [-81.428758, 40.637155], [-81.429316, 40.637137], [-81.429309, 40.637], [-81.429214, 40.637003], [-81.429112, 40.637006], [-81.429057, 40.637008], [-81.428726, 40.637018], [-81.428715, 40.637018], [-81.428703, 40.637016], [-81.428693, 40.637013], [-81.428683, 40.637009], [-81.428674, 40.637004], [-81.428666, 40.636997], [-81.42866, 40.63699], [-81.428655, 40.636982], [-81.428652, 40.636974]]]}, "properties": {"PARCEL_ID": "34-03593-004", "Listed_Name": "WILKSHIRE HILLS HOLDINGS LLC", "Location_Address": "NE LAURENS RD", "Acres": 0.05, "SUR_ACRE": 0.049, "Land_Use": "501-RESIDENTIAL VACANT LAND - UNPLATTED 0 - 9.99 ACRES", "District": "34-LAWRENCE TWP-TUSC VALLEY SD", "Appraised_Total_100": 0, "Legal_Description": "2 10 .0492A DEDICATED STREET", "owner_group": "wilkshire", "owner": "WILKSHIRE HILLS HOLDINGS LLC", "address": "NE LAURENS RD", "acres": 0.05, "land_use": "501-RESIDENTIAL VACANT LAND - UNPLATTED 0 - 9.99 ACRES", "appraised": 0}}, {"type": "Feature", "geometry": {"type": "Polygon", "coordinates": [[[-81.428957, 40.636329], [-81.428975, 40.63641], [-81.42915, 40.636381], [-81.429365, 40.636359], [-81.429362, 40.636277], [-81.429158, 40.636296], [-81.428957, 40.636329]]]}, "properties": {"PARCEL_ID": "34-03594-001", "Listed_Name": "WILKSHIRE HILLS HOLDINGS LLC", "Location_Address": "NE BUEHLER RD", "Acres": 0.08, "SUR_ACRE": 0.077, "Land_Use": "501-RESIDENTIAL VACANT LAND - UNPLATTED 0 - 9.99 ACRES", "District": "34-LAWRENCE TWP-TUSC VALLEY SD", "Appraised_Total_100": 580, "Legal_Description": "2 10 1 (LEBOLD) .0771A", "owner_group": "wilkshire", "owner": "WILKSHIRE HILLS HOLDINGS LLC", "address": "NE BUEHLER RD", "acres": 0.08, "land_use": "501-RESIDENTIAL VACANT LAND - UNPLATTED 0 - 9.99 ACRES", "appraised": 580}}, {"type": "Feature", "geometry": {"type": "Polygon", "coordinates": [[[-81.436537, 40.636118], [-81.437419, 40.636387], [-81.437422, 40.63629], [-81.437553, 40.632368], [-81.43756, 40.632157], [-81.437457, 40.63184], [-81.437341, 40.631835], [-81.432514, 40.631651], [-81.43073, 40.631581], [-81.424543, 40.631346], [-81.424789, 40.63215], [-81.425064, 40.633052], [-81.425386, 40.63304], [-81.425608, 40.633722], [-81.425695, 40.633989], [-81.426043, 40.634093], [-81.426442, 40.634211], [-81.42679, 40.634314], [-81.427138, 40.634418], [-81.427587, 40.634551], [-81.427977, 40.634802], [-81.428368, 40.635053], [-81.428639, 40.635327], [-81.428717, 40.635406], [-81.429762, 40.635424], [-81.429854, 40.635356], [-81.429864, 40.635349], [-81.429802, 40.6353], [-81.430062, 40.63511], [-81.430071, 40.63478], [-81.430465, 40.634876], [-81.430811, 40.634961], [-81.430855, 40.635138], [-81.430866, 40.635318], [-81.430865, 40.635328], [-81.430861, 40.635337], [-81.430856, 40.635346], [-81.430848, 40.635353], [-81.430839, 40.63536], [-81.430829, 40.635365], [-81.430818, 40.635369], [-81.430806, 40.635371], [-81.430793, 40.635372], [-81.431097, 40.635377], [-81.431085, 40.635376], [-81.431073, 40.635373], [-81.431062, 40.635369], [-81.431052, 40.635363], [-81.431044, 40.635356], [-81.431037, 40.635348], [-81.431032, 40.635339], [-81.431029, 40.63533], [-81.431029, 40.635321], [-81.431019, 40.635141], [-81.43098, 40.634963], [-81.431399, 40.63497], [-81.431725, 40.634976], [-81.432049, 40.634983], [-81.432373, 40.634989], [-81.432697, 40.634995], [-81.433033, 40.635001], [-81.433083, 40.635173], [-81.433112, 40.635349], [-81.433112, 40.635358], [-81.43311, 40.635366], [-81.433107, 40.635374], [-81.433101, 40.635382], [-81.433095, 40.635389], [-81.433087, 40.635395], [-81.433078, 40.6354], [-81.433067, 40.635404], [-81.433057, 40.635407], [-81.433045, 40.635408], [-81.433363, 40.6354], [-81.433351, 40.635399], [-81.433339, 40.635397], [-81.433328, 40.635393], [-81.433318, 40.635388], [-81.433309, 40.635382], [-81.433301, 40.635375], [-81.433296, 40.635367], [-81.433292, 40.635358], [-81.43329, 40.635349], [-81.433267, 40.635196], [-81.43323, 40.635045], [-81.433676, 40.634968], [-81.434054, 40.634963], [-81.434811, 40.634954], [-81.434805, 40.63468], [-81.435225, 40.634674], [-81.435526, 40.634897], [-81.435827, 40.635119], [-81.435834, 40.635439], [-81.435839, 40.635823], [-81.435841, 40.635912], [-81.436537, 40.636118]]]}, "properties": {"PARCEL_ID": "34-03613-009", "Listed_Name": "WILKSHIRE HILLS HOLDINGS LLC", "Location_Address": "NE KERNS DR", "Acres": 98.53, "SUR_ACRE": 98.527, "Land_Use": "110-AGRICULTURAL VACANT LAND \"QUALIFIED FOR CURRENT AGRICULTURAL USE VALUE\"", "District": "34-LAWRENCE TWP-TUSC VALLEY SD", "Appraised_Total_100": 719840, "Legal_Description": "2 10 1 98.527A", "owner_group": "wilkshire", "owner": "WILKSHIRE HILLS HOLDINGS LLC", "address": "NE KERNS DR", "acres": 98.53, "land_use": "110-AGRICULTURAL VACANT LAND \"QUALIFIED FOR CURRENT AGRICULTURAL USE VALUE\"", "appraised": 719840}}, {"type": "Feature", "geometry": {"type": "Polygon", "coordinates": [[[-81.429362, 40.636277], [-81.429365, 40.636359], [-81.42972, 40.636358], [-81.42974, 40.636196], [-81.430101, 40.636214], [-81.430105, 40.635855], [-81.429711, 40.635825], [-81.429686, 40.636191], [-81.429383, 40.636194], [-81.429082, 40.636223], [-81.428788, 40.63628], [-81.428855, 40.636351], [-81.428957, 40.636329], [-81.429158, 40.636296], [-81.429362, 40.636277]]]}, "properties": {"PARCEL_ID": "34-03613-010", "Listed_Name": "WILKSHIRE HILLS HOLDINGS LLC", "Location_Address": "BUEHLER RD", "Acres": 0.59, "SUR_ACRE": 0.589, "Land_Use": "110-AGRICULTURAL VACANT LAND \"QUALIFIED FOR CURRENT AGRICULTURAL USE VALUE\"", "District": "34-LAWRENCE TWP-TUSC VALLEY SD", "Appraised_Total_100": 4330, "Legal_Description": "2 10 1 .589A", "owner_group": "wilkshire", "owner": "WILKSHIRE HILLS HOLDINGS LLC", "address": "BUEHLER RD", "acres": 0.59, "land_use": "110-AGRICULTURAL VACANT LAND \"QUALIFIED FOR CURRENT AGRICULTURAL USE VALUE\"", "appraised": 4330}}, {"type": "Feature", "geometry": {"type": "Polygon", "coordinates": [[[-81.444867, 40.640928], [-81.445413, 40.641191], [-81.445051, 40.640919], [-81.44457, 40.640512], [-81.444127, 40.640081], [-81.444115, 40.64007], [-81.444101, 40.640061], [-81.444085, 40.640054], [-81.444068, 40.64005], [-81.444051, 40.640047], [-81.444033, 40.640047], [-81.444015, 40.640049], [-81.443997, 40.640053], [-81.443981, 40.640059], [-81.443967, 40.640068], [-81.443954, 40.640078], [-81.443944, 40.640089], [-81.443795, 40.640314], [-81.443746, 40.640388], [-81.444349, 40.640678], [-81.444867, 40.640928]]]}, "properties": {"PARCEL_ID": "34-03635-000", "Listed_Name": "KRIZMAN ENTERPRISES", "Location_Address": "WILKSHIRE BLVD", "Acres": 0.88, "SUR_ACRE": 0.877, "Land_Use": "400-COMMERCIAL - VACANT LAND", "District": "34-LAWRENCE TWP-TUSC VALLEY SD", "Appraised_Total_100": 17060, "Legal_Description": "2 10 1 ZOAR SD .8776A", "owner_group": "krizman", "owner": "KRIZMAN ENTERPRISES", "address": "WILKSHIRE BLVD", "acres": 0.88, "land_use": "400-COMMERCIAL - VACANT LAND", "appraised": 17060}}, {"type": "Feature", "geometry": {"type": "Polygon", "coordinates": [[[-81.435463, 40.620454], [-81.435689, 40.620784], [-81.435739, 40.620769], [-81.436228, 40.620617], [-81.437996, 40.620067], [-81.437096, 40.6198], [-81.435777, 40.619349], [-81.434328, 40.618792], [-81.43338, 40.618649], [-81.433303, 40.619629], [-81.433662, 40.619649], [-81.434136, 40.619713], [-81.434771, 40.619932], [-81.435153, 40.620166], [-81.435463, 40.620454]]]}, "properties": {"PARCEL_ID": "34-03639-000", "Listed_Name": "KRIZMAN ENTERPRISES INC - A PARTNERSHIP", "Location_Address": "NE HESS MILL RD", "Acres": 9.31, "SUR_ACRE": 9.31, "Land_Use": "100-AGRICULTURAL VACANT LAND", "District": "34-LAWRENCE TWP-TUSC VALLEY SD", "Appraised_Total_100": 16850, "Legal_Description": "2 10 1 10 ZOAR SD 9.3119A (GARBER)", "owner_group": "krizman", "owner": "KRIZMAN ENTERPRISES INC - A PARTNERSHIP", "address": "NE HESS MILL RD", "acres": 9.31, "land_use": "100-AGRICULTURAL VACANT LAND", "appraised": 16850}}, {"type": "Feature", "geometry": {"type": "Polygon", "coordinates": [[[-81.4472, 40.624785], [-81.447897, 40.624822], [-81.442798, 40.622197], [-81.441971, 40.622209], [-81.443269, 40.622896], [-81.444741, 40.624655], [-81.446094, 40.624727], [-81.44617, 40.624433], [-81.446707, 40.624525], [-81.4472, 40.624785]]]}, "properties": {"PARCEL_ID": "34-03643-000", "Listed_Name": "KRIZMAN ENTERPRISES INC", "Location_Address": "WILKSHIRE BLVD", "Acres": 9.89, "SUR_ACRE": 9.89, "Land_Use": "100-AGRICULTURAL VACANT LAND", "District": "34-LAWRENCE TWP-TUSC VALLEY SD", "Appraised_Total_100": 14540, "Legal_Description": "2 10 1 8 ZOAR SD 9.8911A (GARBER)", "owner_group": "krizman", "owner": "KRIZMAN ENTERPRISES INC", "address": "WILKSHIRE BLVD", "acres": 9.89, "land_use": "100-AGRICULTURAL VACANT LAND", "appraised": 14540}}, {"type": "Feature", "geometry": {"type": "Polygon", "coordinates": [[[-81.44051, 40.623465], [-81.442087, 40.624514], [-81.44352, 40.623935], [-81.442461, 40.622894], [-81.441045, 40.622222], [-81.438691, 40.622256], [-81.44051, 40.623465]]]}, "properties": {"PARCEL_ID": "34-03644-000", "Listed_Name": "KRIZMAN ENTERPRISES INC - A PARTNERSHIP", "Location_Address": "WILKSHIRE BLVD", "Acres": 11.76, "SUR_ACRE": 11.76, "Land_Use": "100-AGRICULTURAL VACANT LAND", "District": "34-LAWRENCE TWP-TUSC VALLEY SD", "Appraised_Total_100": 25930, "Legal_Description": "2 10 1 8 ZOAR SD 11.7638A (GARBER)", "owner_group": "krizman", "owner": "KRIZMAN ENTERPRISES INC - A PARTNERSHIP", "address": "WILKSHIRE BLVD", "acres": 11.76, "land_use": "100-AGRICULTURAL VACANT LAND", "appraised": 25930}}, {"type": "Feature", "geometry": {"type": "Polygon", "coordinates": [[[-81.441154, 40.621776], [-81.441971, 40.622209], [-81.442798, 40.622197], [-81.441278, 40.621414], [-81.439842, 40.619494], [-81.439526, 40.618848], [-81.43944, 40.61867], [-81.43876, 40.618626], [-81.439214, 40.619599], [-81.439246, 40.619679], [-81.440198, 40.621028], [-81.441154, 40.621776]]]}, "properties": {"PARCEL_ID": "34-03645-000", "Listed_Name": "KRIZMAN ENTERPRISES INC", "Location_Address": "NE HESS MILL RD", "Acres": 5.77, "SUR_ACRE": 5.77, "Land_Use": "100-AGRICULTURAL VACANT LAND", "District": "34-LAWRENCE TWP-TUSC VALLEY SD", "Appraised_Total_100": 6000, "Legal_Description": "2 10 4 9 ZOAR SD 5.7662A (GARBER)", "owner_group": "krizman", "owner": "KRIZMAN ENTERPRISES INC", "address": "NE HESS MILL RD", "acres": 5.77, "land_use": "100-AGRICULTURAL VACANT LAND", "appraised": 6000}}, {"type": "Feature", "geometry": {"type": "Polygon", "coordinates": [[[-81.436228, 40.620617], [-81.438691, 40.622256], [-81.441045, 40.622222], [-81.440992, 40.622196], [-81.44071, 40.622063], [-81.439818, 40.621545], [-81.438933, 40.62037], [-81.437996, 40.620067], [-81.436228, 40.620617]]]}, "properties": {"PARCEL_ID": "34-03646-000", "Listed_Name": "KRIZMAN ENTERPRISES INC - A PARTNERSHIP", "Location_Address": "NE HESS MILL RD", "Acres": 10.89, "SUR_ACRE": 10.89, "Land_Use": "100-AGRICULTURAL VACANT LAND", "District": "34-LAWRENCE TWP-TUSC VALLEY SD", "Appraised_Total_100": 24010, "Legal_Description": "2 10 4 9 ZOAR SD 10.8927A (GARBER)", "owner_group": "krizman", "owner": "KRIZMAN ENTERPRISES INC - A PARTNERSHIP", "address": "NE HESS MILL RD", "acres": 10.89, "land_use": "100-AGRICULTURAL VACANT LAND", "appraised": 24010}}, {"type": "Feature", "geometry": {"type": "Polygon", "coordinates": [[[-81.448698, 40.626825], [-81.44946, 40.626865], [-81.449294, 40.62666], [-81.449113, 40.626315], [-81.448754, 40.625293], [-81.447897, 40.624822], [-81.4472, 40.624785], [-81.447665, 40.62503], [-81.448463, 40.625935], [-81.448698, 40.626825]]]}, "properties": {"PARCEL_ID": "34-03647-000", "Listed_Name": "KRIZMAN ENTERPRISES INC", "Location_Address": "WILKSHIRE BLVD", "Acres": 3.04, "SUR_ACRE": 3.04, "Land_Use": "100-AGRICULTURAL VACANT LAND", "District": "34-LAWRENCE TWP-TUSC VALLEY SD", "Appraised_Total_100": 2900, "Legal_Description": "2 10 4 7 ZOAR SD 3.0415A (HUFFMAN)", "owner_group": "krizman", "owner": "KRIZMAN ENTERPRISES INC", "address": "WILKSHIRE BLVD", "acres": 3.04, "land_use": "100-AGRICULTURAL VACANT LAND", "appraised": 2900}}, {"type": "Feature", "geometry": {"type": "Polygon", "coordinates": [[[-81.444741, 40.624655], [-81.445473, 40.625743], [-81.4459, 40.625475], [-81.446094, 40.624727], [-81.444741, 40.624655]]]}, "properties": {"PARCEL_ID": "34-03648-000", "Listed_Name": "KRIZMAN ENTERPRISES INC", "Location_Address": "WILKSHIRE BLVD", "Acres": 1.96, "SUR_ACRE": 1.96, "Land_Use": "100-AGRICULTURAL VACANT LAND", "District": "34-LAWRENCE TWP-TUSC VALLEY SD", "Appraised_Total_100": 4320, "Legal_Description": "2 10 1 7 ZOAR SD 1.9626A (HUFFMAN)", "owner_group": "krizman", "owner": "KRIZMAN ENTERPRISES INC", "address": "WILKSHIRE BLVD", "acres": 1.96, "land_use": "100-AGRICULTURAL VACANT LAND", "appraised": 4320}}, {"type": "Feature", "geometry": {"type": "Polygon", "coordinates": [[[-81.438524, 40.641811], [-81.441137, 40.642709], [-81.441211, 40.642326], [-81.441499, 40.642386], [-81.442199, 40.642532], [-81.442226, 40.642396], [-81.442998, 40.64177], [-81.442864, 40.641674], [-81.442936, 40.641616], [-81.442615, 40.641387], [-81.442475, 40.641327], [-81.441632, 40.640959], [-81.441607, 40.640948], [-81.441177, 40.641473], [-81.440749, 40.641269], [-81.441169, 40.640758], [-81.44131, 40.640819], [-81.442199, 40.639737], [-81.442256, 40.639667], [-81.442105, 40.639595], [-81.442048, 40.639665], [-81.441581, 40.640233], [-81.441234, 40.64034], [-81.441208, 40.640374], [-81.441163, 40.640391], [-81.441145, 40.640415], [-81.440702, 40.640233], [-81.440786, 40.639979], [-81.440844, 40.639804], [-81.440877, 40.63973], [-81.440925, 40.63966], [-81.440986, 40.639597], [-81.44106, 40.639542], [-81.441144, 40.639496], [-81.441237, 40.639461], [-81.441465, 40.639387], [-81.441586, 40.639347], [-81.441358, 40.639238], [-81.441237, 40.639277], [-81.44111, 40.639318], [-81.440777, 40.639409], [-81.440431, 40.639463], [-81.440078, 40.639481], [-81.439929, 40.639691], [-81.438996, 40.641207], [-81.438878, 40.641265], [-81.438524, 40.641811]]]}, "properties": {"PARCEL_ID": "34-03725-000", "Listed_Name": "KRIZMAN ENTERPRISES", "Location_Address": "STATE ROUTE 212", "Acres": 17.07, "SUR_ACRE": 17.072, "Land_Use": "499-OTHER COMMERCIAL STRUCTURES", "District": "34-LAWRENCE TWP-TUSC VALLEY SD", "Appraised_Total_100": 326850, "Legal_Description": "2 10 1 ZOAR SD (LEBOLD) (NORRIS) 17.0723A", "owner_group": "krizman", "owner": "KRIZMAN ENTERPRISES", "address": "STATE ROUTE 212", "acres": 17.07, "land_use": "499-OTHER COMMERCIAL STRUCTURES", "appraised": 326850}}, {"type": "Feature", "geometry": {"type": "Polygon", "coordinates": [[[-81.441652, 40.637784], [-81.441707, 40.637813], [-81.441757, 40.637847], [-81.441799, 40.637886], [-81.442592, 40.637385], [-81.442504, 40.636983], [-81.441626, 40.637752], [-81.441631, 40.637761], [-81.441636, 40.637769], [-81.441644, 40.637777], [-81.441652, 40.637784]]]}, "properties": {"PARCEL_ID": "34-03756-004", "Listed_Name": "KRIZMAN ENTERPRISES -A PARTNERSHIP", "Location_Address": "NE ENSLEY SQ", "Acres": 0.71, "SUR_ACRE": 0.713, "Land_Use": "400-COMMERCIAL - VACANT LAND", "District": "34-LAWRENCE TWP-TUSC VALLEY SD", "Appraised_Total_100": 21230, "Legal_Description": "WHOLE 1089 .713A", "owner_group": "krizman", "owner": "KRIZMAN ENTERPRISES -A PARTNERSHIP", "address": "NE ENSLEY SQ", "acres": 0.71, "land_use": "400-COMMERCIAL - VACANT LAND", "appraised": 21230}}, {"type": "Feature", "geometry": {"type": "Polygon", "coordinates": [[[-81.441444, 40.63766], [-81.441473, 40.63766], [-81.441502, 40.637664], [-81.44153, 40.637672], [-81.441555, 40.637682], [-81.441579, 40.637696], [-81.441598, 40.637713], [-81.441614, 40.637731], [-81.441626, 40.637752], [-81.442504, 40.636983], [-81.44196, 40.636954], [-81.44178, 40.636935], [-81.441444, 40.63766]]]}, "properties": {"PARCEL_ID": "34-03756-005", "Listed_Name": "KRIZMAN ENTERPRISES -A PARTNERSHIP", "Location_Address": "NE ENSLEY SQ", "Acres": 0.87, "SUR_ACRE": 0.868, "Land_Use": "400-COMMERCIAL - VACANT LAND", "District": "34-LAWRENCE TWP-TUSC VALLEY SD", "Appraised_Total_100": 25950, "Legal_Description": "WHOLE 1090 .868A", "owner_group": "krizman", "owner": "KRIZMAN ENTERPRISES -A PARTNERSHIP", "address": "NE ENSLEY SQ", "acres": 0.87, "land_use": "400-COMMERCIAL - VACANT LAND", "appraised": 25950}}, {"type": "Feature", "geometry": {"type": "Polygon", "coordinates": [[[-81.441114, 40.637567], [-81.441298, 40.637732], [-81.441314, 40.637712], [-81.441335, 40.637696], [-81.441359, 40.637682], [-81.441386, 40.637671], [-81.441414, 40.637664], [-81.441444, 40.63766], [-81.44178, 40.636935], [-81.441291, 40.636882], [-81.441114, 40.637567]]]}, "properties": {"PARCEL_ID": "34-03756-006", "Listed_Name": "KRIZMAN ENTERPRISES -A PARTNERSHIP", "Location_Address": "NE ENSLEY SQ", "Acres": 0.75, "SUR_ACRE": 0.753, "Land_Use": "400-COMMERCIAL - VACANT LAND", "District": "34-LAWRENCE TWP-TUSC VALLEY SD", "Appraised_Total_100": 22430, "Legal_Description": "WHOLE 1091 .753A", "owner_group": "krizman", "owner": "KRIZMAN ENTERPRISES -A PARTNERSHIP", "address": "NE ENSLEY SQ", "acres": 0.75, "land_use": "400-COMMERCIAL - VACANT LAND", "appraised": 22430}}, {"type": "Feature", "geometry": {"type": "Polygon", "coordinates": [[[-81.440943, 40.638046], [-81.441031, 40.638257], [-81.441526, 40.637924], [-81.441498, 40.637931], [-81.441468, 40.637934], [-81.441439, 40.637934], [-81.44141, 40.63793], [-81.441382, 40.637922], [-81.441356, 40.637911], [-81.441333, 40.637897], [-81.441313, 40.63788], [-81.441297, 40.637861], [-81.441285, 40.637841], [-81.441278, 40.637819], [-81.441276, 40.637796], [-81.441279, 40.637774], [-81.441286, 40.637752], [-81.441298, 40.637732], [-81.441114, 40.637567], [-81.441291, 40.636882], [-81.440675, 40.636814], [-81.44049, 40.636977], [-81.440692, 40.637448], [-81.440833, 40.637784], [-81.440943, 40.638046]]]}, "properties": {"PARCEL_ID": "34-03756-007", "Listed_Name": "KRIZMAN ENTERPRISES -A PARTNERSHIP", "Location_Address": "NE ENSLEY SQ", "Acres": 1.59, "SUR_ACRE": 1.59, "Land_Use": "400-COMMERCIAL - VACANT LAND", "District": "34-LAWRENCE TWP-TUSC VALLEY SD", "Appraised_Total_100": 47540, "Legal_Description": "WHOLE 1092 1.590A", "owner_group": "krizman", "owner": "KRIZMAN ENTERPRISES -A PARTNERSHIP", "address": "NE ENSLEY SQ", "acres": 1.59, "land_use": "400-COMMERCIAL - VACANT LAND", "appraised": 47540}}, {"type": "Feature", "geometry": {"type": "Polygon", "coordinates": [[[-81.440334, 40.637113], [-81.439806, 40.637185], [-81.439697, 40.6372], [-81.439866, 40.637602], [-81.439885, 40.637645], [-81.439992, 40.637619], [-81.440692, 40.637448], [-81.44049, 40.636977], [-81.440334, 40.637113]]]}, "properties": {"PARCEL_ID": "34-03756-008", "Listed_Name": "KRIZMAN ENTERPRISES -A PARTNERSHIP", "Location_Address": "NE ENSLEY SQ", "Acres": 0.85, "SUR_ACRE": 0.847, "Land_Use": "400-COMMERCIAL - VACANT LAND", "District": "34-LAWRENCE TWP-TUSC VALLEY SD", "Appraised_Total_100": 25330, "Legal_Description": "WHOLE 1093 .847A", "owner_group": "krizman", "owner": "KRIZMAN ENTERPRISES -A PARTNERSHIP", "address": "NE ENSLEY SQ", "acres": 0.85, "land_use": "400-COMMERCIAL - VACANT LAND", "appraised": 25330}}, {"type": "Feature", "geometry": {"type": "Polygon", "coordinates": [[[-81.429463, 40.621184], [-81.429411, 40.621267], [-81.43025, 40.621421], [-81.430304, 40.621345], [-81.430447, 40.621141], [-81.430189, 40.621047], [-81.429928, 40.620953], [-81.429668, 40.620859], [-81.429463, 40.621184]]]}, "properties": {"PARCEL_ID": "34-03759-000", "Listed_Name": "KRIZMAN ENTERPRISES -A PARTNERSHIP", "Location_Address": "STATE ROUTE 212", "Acres": 1.28, "SUR_ACRE": 1.28, "Land_Use": "501-RESIDENTIAL VACANT LAND - UNPLATTED 0 - 9.99 ACRES", "District": "34-LAWRENCE TWP-TUSC VALLEY SD", "Appraised_Total_100": 23100, "Legal_Description": "2 10 1 11 ZOAR SD 1.2827A", "owner_group": "krizman", "owner": "KRIZMAN ENTERPRISES -A PARTNERSHIP", "address": "STATE ROUTE 212", "acres": 1.28, "land_use": "501-RESIDENTIAL VACANT LAND - UNPLATTED 0 - 9.99 ACRES", "appraised": 23100}}, {"type": "Feature", "geometry": {"type": "Polygon", "coordinates": [[[-81.430304, 40.621345], [-81.43025, 40.621421], [-81.430776, 40.621517], [-81.430822, 40.621444], [-81.430907, 40.621307], [-81.430447, 40.621141], [-81.430304, 40.621345]]]}, "properties": {"PARCEL_ID": "34-03760-000", "Listed_Name": "KRIZMAN ENTERPRISES -A PARTNERSHIP", "Location_Address": "STATE ROUTE 212", "Acres": 0.34, "SUR_ACRE": 0.34, "Land_Use": "501-RESIDENTIAL VACANT LAND - UNPLATTED 0 - 9.99 ACRES", "District": "34-LAWRENCE TWP-TUSC VALLEY SD", "Appraised_Total_100": 6140, "Legal_Description": "2 10 1 10 ZOAR SD .3377A", "owner_group": "krizman", "owner": "KRIZMAN ENTERPRISES -A PARTNERSHIP", "address": "STATE ROUTE 212", "acres": 0.34, "land_use": "501-RESIDENTIAL VACANT LAND - UNPLATTED 0 - 9.99 ACRES", "appraised": 6140}}, {"type": "Feature", "geometry": {"type": "Polygon", "coordinates": [[[-81.412896, 40.644609], [-81.416814, 40.644676], [-81.416857, 40.644163], [-81.416318, 40.644128], [-81.415851, 40.644096], [-81.415492, 40.644073], [-81.414972, 40.644038], [-81.414559, 40.644011], [-81.41464, 40.643247], [-81.414227, 40.64322], [-81.414285, 40.642673], [-81.414295, 40.642584], [-81.414093, 40.64257], [-81.413734, 40.642547], [-81.413411, 40.642525], [-81.412928, 40.642493], [-81.412896, 40.644609]]]}, "properties": {"PARCEL_ID": "34-03767-000", "Listed_Name": "KRIZMAN ENTERPRISES -A PARTNERSHIP", "Location_Address": "NE NORTH ORCHARD RD", "Acres": 10.68, "SUR_ACRE": 10.6757, "Land_Use": "110-AGRICULTURAL VACANT LAND \"QUALIFIED FOR CURRENT AGRICULTURAL USE VALUE\"", "District": "34-LAWRENCE TWP-TUSC VALLEY SD", "Appraised_Total_100": 60660, "Legal_Description": "2 10 1 (MIZER) 10.6757A", "owner_group": "krizman", "owner": "KRIZMAN ENTERPRISES -A PARTNERSHIP", "address": "NE NORTH ORCHARD RD", "acres": 10.68, "land_use": "110-AGRICULTURAL VACANT LAND \"QUALIFIED FOR CURRENT AGRICULTURAL USE VALUE\"", "appraised": 60660}}, {"type": "Feature", "geometry": {"type": "Polygon", "coordinates": [[[-81.439498, 40.623212], [-81.440215, 40.623649], [-81.44051, 40.623465], [-81.438691, 40.622256], [-81.438244, 40.622262], [-81.438514, 40.622458], [-81.438891, 40.622731], [-81.439204, 40.622958], [-81.439332, 40.623051], [-81.439463, 40.623146], [-81.439523, 40.623189], [-81.439498, 40.623212]]]}, "properties": {"PARCEL_ID": "34-03805-000", "Listed_Name": "KRIZMAN ENTERPRISES INC - A PARTNERSHIP", "Location_Address": "WILKSHIRE BLVD", "Acres": 1.77, "SUR_ACRE": 1.76, "Land_Use": "400-COMMERCIAL - VACANT LAND", "District": "34-LAWRENCE TWP-TUSC VALLEY SD", "Appraised_Total_100": 4270, "Legal_Description": "2 10 1 8 ZOAR 1.7671A", "owner_group": "krizman", "owner": "KRIZMAN ENTERPRISES INC - A PARTNERSHIP", "address": "WILKSHIRE BLVD", "acres": 1.77, "land_use": "400-COMMERCIAL - VACANT LAND", "appraised": 4270}}, {"type": "Feature", "geometry": {"type": "Polygon", "coordinates": [[[-81.432072, 40.642947], [-81.432075, 40.643032], [-81.432096, 40.643718], [-81.432569, 40.643856], [-81.432543, 40.642946], [-81.432541, 40.642858], [-81.432304, 40.642895], [-81.432072, 40.642947]]]}, "properties": {"PARCEL_ID": "34-03859-000", "Listed_Name": "KRIZMAN ENTERPRISES -A LIMITED PARTNERSHIP", "Location_Address": "NE OLDE ORCHARD DR", "Acres": 0.96, "SUR_ACRE": 0.96, "Land_Use": "501-RESIDENTIAL VACANT LAND - UNPLATTED 0 - 9.99 ACRES", "District": "34-LAWRENCE TWP-TUSC VALLEY SD", "Appraised_Total_100": 25830, "Legal_Description": "2 10 1 (P NORRIS) .9632A", "owner_group": "krizman", "owner": "KRIZMAN ENTERPRISES -A LIMITED PARTNERSHIP", "address": "NE OLDE ORCHARD DR", "acres": 0.96, "land_use": "501-RESIDENTIAL VACANT LAND - UNPLATTED 0 - 9.99 ACRES", "appraised": 25830}}, {"type": "Feature", "geometry": {"type": "Polygon", "coordinates": [[[-81.431541, 40.622], [-81.433314, 40.622334], [-81.432973, 40.622031], [-81.431694, 40.621789], [-81.431541, 40.622]]]}, "properties": {"PARCEL_ID": "34-03863-000", "Listed_Name": "KRIZMAN ENTERPRISES -A LIMITED PARTNERSHIP", "Location_Address": "STATE ROUTE 212", "Acres": 2.06, "SUR_ACRE": 2.055, "Land_Use": "501-RESIDENTIAL VACANT LAND - UNPLATTED 0 - 9.99 ACRES", "District": "34-LAWRENCE TWP-TUSC VALLEY SD", "Appraised_Total_100": 29740, "Legal_Description": "2 10 1 19 ZOAR SD 2.0554A", "owner_group": "krizman", "owner": "KRIZMAN ENTERPRISES -A LIMITED PARTNERSHIP", "address": "STATE ROUTE 212", "acres": 2.06, "land_use": "501-RESIDENTIAL VACANT LAND - UNPLATTED 0 - 9.99 ACRES", "appraised": 29740}}, {"type": "Feature", "geometry": {"type": "Polygon", "coordinates": [[[-81.428479, 40.628527], [-81.428543, 40.627918], [-81.428313, 40.627953], [-81.427605, 40.628062], [-81.427023, 40.628756], [-81.426303, 40.628811], [-81.426168, 40.628726], [-81.426044, 40.628632], [-81.425964, 40.628687], [-81.426093, 40.628785], [-81.426234, 40.628874], [-81.426897, 40.628906], [-81.427759, 40.628939], [-81.427771, 40.628802], [-81.427785, 40.628644], [-81.427953, 40.628525], [-81.428138, 40.628497], [-81.428479, 40.628527]]]}, "properties": {"PARCEL_ID": "34-03870-000", "Listed_Name": "KRIZMAN ENTERPRISES", "Location_Address": "NE BIMELER ST", "Acres": 2.26, "SUR_ACRE": 2.2604, "Land_Use": "501-RESIDENTIAL VACANT LAND - UNPLATTED 0 - 9.99 ACRES", "District": "34-LAWRENCE TWP-TUSC VALLEY SD", "Appraised_Total_100": 21100, "Legal_Description": "2 10 1 18 ZOAR SD 2.2604A", "owner_group": "krizman", "owner": "KRIZMAN ENTERPRISES", "address": "NE BIMELER ST", "acres": 2.26, "land_use": "501-RESIDENTIAL VACANT LAND - UNPLATTED 0 - 9.99 ACRES", "appraised": 21100}}, {"type": "Feature", "geometry": {"type": "Polygon", "coordinates": [[[-81.426941, 40.62785], [-81.427605, 40.628062], [-81.428313, 40.627953], [-81.427659, 40.627419], [-81.426378, 40.627539], [-81.426459, 40.627835], [-81.426508, 40.628013], [-81.426941, 40.62785]]]}, "properties": {"PARCEL_ID": "34-03871-000", "Listed_Name": "KRIZMAN ENTERPRISES", "Location_Address": "NE BIMLER ST", "Acres": 1.84, "SUR_ACRE": 1.84, "Land_Use": "501-RESIDENTIAL VACANT LAND - UNPLATTED 0 - 9.99 ACRES", "District": "34-LAWRENCE TWP-TUSC VALLEY SD", "Appraised_Total_100": 21470, "Legal_Description": "2 10 1 18 ZOAR SE (REED) 1.8415A", "owner_group": "krizman", "owner": "KRIZMAN ENTERPRISES", "address": "NE BIMLER ST", "acres": 1.84, "land_use": "501-RESIDENTIAL VACANT LAND - UNPLATTED 0 - 9.99 ACRES", "appraised": 21470}}, {"type": "Feature", "geometry": {"type": "Polygon", "coordinates": [[[-81.416378, 40.637411], [-81.416414, 40.637358], [-81.416442, 40.637303], [-81.416451, 40.637282], [-81.415838, 40.637249], [-81.413893, 40.637143], [-81.413893, 40.637165], [-81.413887, 40.637415], [-81.413878, 40.637822], [-81.41387, 40.638227], [-81.413864, 40.638474], [-81.413859, 40.638721], [-81.413853, 40.638968], [-81.413851, 40.639063], [-81.414951, 40.639077], [-81.415011, 40.63973], [-81.41508, 40.640473], [-81.415156, 40.641297], [-81.415222, 40.642012], [-81.415473, 40.642028], [-81.415868, 40.642055], [-81.416263, 40.642081], [-81.416658, 40.642107], [-81.417058, 40.642113], [-81.417418, 40.642114], [-81.417745, 40.642114], [-81.417422, 40.641722], [-81.417262, 40.641476], [-81.416229, 40.639892], [-81.416941, 40.639787], [-81.417118, 40.63976], [-81.417087, 40.639535], [-81.417106, 40.639309], [-81.416928, 40.639288], [-81.416929, 40.639277], [-81.416928, 40.639266], [-81.416924, 40.639255], [-81.416919, 40.639245], [-81.416911, 40.639236], [-81.416901, 40.639228], [-81.416889, 40.639221], [-81.416877, 40.639215], [-81.416863, 40.639211], [-81.416614, 40.639142], [-81.416385, 40.639041], [-81.416182, 40.638912], [-81.416011, 40.638757], [-81.415925, 40.638646], [-81.415862, 40.638526], [-81.415825, 40.6384], [-81.415814, 40.638271], [-81.415048, 40.638229], [-81.415066, 40.63734], [-81.416378, 40.637411]]]}, "properties": {"PARCEL_ID": "34-03884-000", "Listed_Name": "WILKSHIRE HILLS HOLDINGS LLC", "Location_Address": "NE WELTON RD REAR", "Acres": 20.39, "SUR_ACRE": 20.388, "Land_Use": "100-AGRICULTURAL VACANT LAND", "District": "34-LAWRENCE TWP-TUSC VALLEY SD", "Appraised_Total_100": 191810, "Legal_Description": "2 10 1 NORRIS 20.388A EXCEPT OIL GAS AND MINERALS", "owner_group": "wilkshire", "owner": "WILKSHIRE HILLS HOLDINGS LLC", "address": "NE WELTON RD REAR", "acres": 20.39, "land_use": "100-AGRICULTURAL VACANT LAND", "appraised": 191810}}, {"type": "Feature", "geometry": {"type": "MultiPolygon", "coordinates": [[[[-81.43073, 40.631581], [-81.432514, 40.631651], [-81.437341, 40.631835], [-81.437457, 40.63184], [-81.437247, 40.631337], [-81.437163, 40.631138], [-81.437152, 40.631112], [-81.437048, 40.630862], [-81.437032, 40.631026], [-81.437032, 40.631026], [-81.437027, 40.631044], [-81.437019, 40.631062], [-81.437006, 40.631078], [-81.436991, 40.631092], [-81.436972, 40.631104], [-81.436951, 40.631114], [-81.436928, 40.63112], [-81.436904, 40.631124], [-81.43688, 40.631124], [-81.436878, 40.631124], [-81.435261, 40.631034], [-81.435139, 40.631025], [-81.434474, 40.631012], [-81.43392, 40.631038], [-81.433671, 40.631057], [-81.433568, 40.631061], [-81.433465, 40.631058], [-81.433318, 40.631038], [-81.433175, 40.631003], [-81.43304, 40.630953], [-81.432917, 40.630888], [-81.432797, 40.630803], [-81.432536, 40.630543], [-81.43236, 40.630638], [-81.432538, 40.63083], [-81.432615, 40.630904], [-81.432331, 40.631058], [-81.432084, 40.631191], [-81.431832, 40.631328], [-81.431585, 40.631461], [-81.431231, 40.631116], [-81.431184, 40.631145], [-81.431025, 40.631259], [-81.430886, 40.631388], [-81.430767, 40.631528], [-81.428628, 40.631444], [-81.428961, 40.630387], [-81.429034, 40.629995], [-81.429105, 40.629895], [-81.429258, 40.629682], [-81.429114, 40.629674], [-81.428664, 40.629652], [-81.42848, 40.629643], [-81.428156, 40.629627], [-81.427702, 40.629604], [-81.427759, 40.628939], [-81.426897, 40.628906], [-81.426234, 40.628874], [-81.426403, 40.628969], [-81.426584, 40.629051], [-81.426542, 40.629479], [-81.426492, 40.629981], [-81.425502, 40.630504], [-81.424919, 40.629928], [-81.424889, 40.629955], [-81.424679, 40.630146], [-81.424537, 40.630368], [-81.424363, 40.630639], [-81.424131, 40.630857], [-81.423901, 40.631077], [-81.423661, 40.631322], [-81.424543, 40.631346], [-81.43073, 40.631581]]], [[[-81.42446, 40.628655], [-81.424817, 40.629039], [-81.424874, 40.629005], [-81.424516, 40.628624], [-81.42446, 40.628655]]]]}, "properties": {"PARCEL_ID": "34-03902-000", "Listed_Name": "KRIZMAN ENTERPRISES -A PARTNERSHIP", "Location_Address": "BIMELER ST", "Acres": 28.26, "SUR_ACRE": 28.2579, "Land_Use": "100-AGRICULTURAL VACANT LAND", "District": "34-LAWRENCE TWP-TUSC VALLEY SD", "Appraised_Total_100": 188640, "Legal_Description": "2 10 11 17 ZOAR SD 28.2579A", "owner_group": "krizman", "owner": "KRIZMAN ENTERPRISES -A PARTNERSHIP", "address": "BIMELER ST", "acres": 28.26, "land_use": "100-AGRICULTURAL VACANT LAND", "appraised": 188640}}, {"type": "Feature", "geometry": {"type": "Polygon", "coordinates": [[[-81.426249, 40.620821], [-81.426235, 40.620813], [-81.426506, 40.620325], [-81.426548, 40.620251], [-81.426463, 40.620191], [-81.426423, 40.620266], [-81.426155, 40.620768], [-81.424956, 40.619958], [-81.42531, 40.619517], [-81.425368, 40.619445], [-81.425302, 40.619401], [-81.425245, 40.619472], [-81.424794, 40.620033], [-81.424905, 40.620323], [-81.424995, 40.620561], [-81.424994, 40.620624], [-81.424993, 40.6207], [-81.426249, 40.620821]]]}, "properties": {"PARCEL_ID": "34-03919-000", "Listed_Name": "KRIZMAN ENTERPRISES -A PARTNERSHIP", "Location_Address": "BIMELER ST", "Acres": 1.48, "SUR_ACRE": 1.87, "Land_Use": "501-RESIDENTIAL VACANT LAND - UNPLATTED 0 - 9.99 ACRES", "District": "34-LAWRENCE TWP-TUSC VALLEY SD", "Appraised_Total_100": 43140, "Legal_Description": "2 10 4 21 ZOAR SD 1.4798A", "owner_group": "krizman", "owner": "KRIZMAN ENTERPRISES -A PARTNERSHIP", "address": "BIMELER ST", "acres": 1.48, "land_use": "501-RESIDENTIAL VACANT LAND - UNPLATTED 0 - 9.99 ACRES", "appraised": 43140}}, {"type": "Feature", "geometry": {"type": "Polygon", "coordinates": [[[-81.417164, 40.635718], [-81.417307, 40.635801], [-81.418466, 40.635369], [-81.418478, 40.634985], [-81.419547, 40.635335], [-81.419576, 40.633988], [-81.4179, 40.633449], [-81.417681, 40.633154], [-81.416687, 40.632835], [-81.416355, 40.632728], [-81.416164, 40.632853], [-81.415752, 40.633124], [-81.415424, 40.633339], [-81.415098, 40.633552], [-81.416067, 40.633565], [-81.416062, 40.634159], [-81.416142, 40.634337], [-81.416624, 40.635406], [-81.416734, 40.635469], [-81.416793, 40.635503], [-81.417164, 40.635718]]]}, "properties": {"PARCEL_ID": "34-03921-000", "Listed_Name": "KRIZMAN ENTERPRISES -A PARTNERSHIP", "Location_Address": "NE WELTON RD", "Acres": 17, "SUR_ACRE": 17.0041, "Land_Use": "110-AGRICULTURAL VACANT LAND \"QUALIFIED FOR CURRENT AGRICULTURAL USE VALUE\"", "District": "34-LAWRENCE TWP-TUSC VALLEY SD", "Appraised_Total_100": 208300, "Legal_Description": "2 10 1 17 ZOAR SD 17.0041A", "owner_group": "krizman", "owner": "KRIZMAN ENTERPRISES -A PARTNERSHIP", "address": "NE WELTON RD", "acres": 17, "land_use": "110-AGRICULTURAL VACANT LAND \"QUALIFIED FOR CURRENT AGRICULTURAL USE VALUE\"", "appraised": 208300}}, {"type": "Feature", "geometry": {"type": "Polygon", "coordinates": [[[-81.413893, 40.637143], [-81.415838, 40.637249], [-81.415841, 40.637215], [-81.415859, 40.637024], [-81.415493, 40.636882], [-81.414817, 40.636624], [-81.414289, 40.636424], [-81.413958, 40.636456], [-81.413798, 40.636471], [-81.413838, 40.636763], [-81.413878, 40.637054], [-81.413164, 40.637016], [-81.413073, 40.637011], [-81.413071, 40.637093], [-81.413162, 40.637099], [-81.413893, 40.637143]]]}, "properties": {"PARCEL_ID": "34-03938-005", "Listed_Name": "KRIZMAN ENTERPRISES -A PARTNERSHIP", "Location_Address": "NE WELTON RD", "Acres": 2.62, "SUR_ACRE": 2.62, "Land_Use": "500-RESIDENTIAL VACANT LAND", "District": "34-LAWRENCE TWP-TUSC VALLEY SD", "Appraised_Total_100": 62560, "Legal_Description": "WHOLE 1002 2.6230A", "owner_group": "krizman", "owner": "KRIZMAN ENTERPRISES -A PARTNERSHIP", "address": "NE WELTON RD", "acres": 2.62, "land_use": "500-RESIDENTIAL VACANT LAND", "appraised": 62560}}, {"type": "Feature", "geometry": {"type": "Polygon", "coordinates": [[[-81.43876, 40.618626], [-81.43944, 40.61867], [-81.439152, 40.618076], [-81.438386, 40.616907], [-81.436708, 40.615663], [-81.436438, 40.615552], [-81.4348, 40.614877], [-81.434439, 40.615393], [-81.43561, 40.615912], [-81.437142, 40.616649], [-81.438332, 40.617709], [-81.43876, 40.618626]]]}, "properties": {"PARCEL_ID": "38-00263-000", "Listed_Name": "KRIZMAN ENTERPRISES INC", "Location_Address": "SEVENTH ST", "Acres": 9.69, "SUR_ACRE": 9.686, "Land_Use": "100-AGRICULTURAL VACANT LAND", "District": "38-LAWRENCE TWP-ZOAR CORP", "Appraised_Total_100": 15300, "Legal_Description": "2 10 4 10 ZOAR SD 9.6867A (GARBER)", "owner_group": "krizman", "owner": "KRIZMAN ENTERPRISES INC", "address": "SEVENTH ST", "acres": 9.69, "land_use": "100-AGRICULTURAL VACANT LAND", "appraised": 15300}}, {"type": "Feature", "geometry": {"type": "Polygon", "coordinates": [[[-81.425767, 40.617339], [-81.426083, 40.617557], [-81.426094, 40.617346], [-81.425767, 40.617339]]]}, "properties": {"PARCEL_ID": "38-00444-000", "Listed_Name": "KRIZMAN ENTERPRISES -A PARTNERSHIP", "Location_Address": "W SEVENTH ST", "Acres": 0.08, "SUR_ACRE": 0.081, "Land_Use": "501-RESIDENTIAL VACANT LAND - UNPLATTED 0 - 9.99 ACRES", "District": "38-LAWRENCE TWP-ZOAR CORP", "Appraised_Total_100": 1440, "Legal_Description": "PR 280 .0816A", "owner_group": "krizman", "owner": "KRIZMAN ENTERPRISES -A PARTNERSHIP", "address": "W SEVENTH ST", "acres": 0.08, "land_use": "501-RESIDENTIAL VACANT LAND - UNPLATTED 0 - 9.99 ACRES", "appraised": 1440}}], "_meta": {"count": 66, "totalAcres": 521.9, "missing": [], "owners": {"krizman": {"count": 47, "acres": 222.8, "appraised": 2329780}, "wilkshire": {"count": 19, "acres": 299.2, "appraised": 1949800}}}}