{"type": "FeatureCollection", "features": [{"type": "Feature", "geometry": {"type": "Point", "coordinates": [-81.44335816659901, 40.62349369338912]}, "properties": {"API_WELLNO": "34157241380000", "WELL_NM": "RANGE PETROLEUM # 3", "WELL_NO": "3", "SLANT": "V", "WL_STATUS_DESC": "Producing", "MapSymbol_DESC": "Oil and gas", "api": "34157241380000", "name": "RANGE PETROLEUM # 3", "number": "3", "slant": "V", "status": "Producing", "type": "Oil and gas", "operator": "Krizman Enterprises, LLC"}}, {"type": "Feature", "geometry": {"type": "Point", "coordinates": [-81.42765607626833, 40.62982607089366]}, "properties": {"API_WELLNO": "34157243830000", "WELL_NM": "KRIZMAN ENTERPRISES # 4", "WELL_NO": "4", "SLANT": "V", "WL_STATUS_DESC": "Producing", "MapSymbol_DESC": "Oil and gas", "api": "34157243830000", "name": "KRIZMAN ENTERPRISES # 4", "number": "4", "slant": "V", "status": "Producing", "type": "Oil and gas", "operator": "Krizman Enterprises, LLC"}}, {"type": "Feature", "geometry": {"type": "Point", "coordinates": [-81.43277676713691, 40.62507004317868]}, "properties": {"API_WELLNO": "34157243860000", "WELL_NM": "M. REED COMMUNITY # 1", "WELL_NO": "1", "SLANT": "V", "WL_STATUS_DESC": "Producing", "MapSymbol_DESC": "Oil and gas", "api": "34157243860000", "name": "M. REED COMMUNITY # 1", "number": "1", "slant": "V", "status": "Producing", "type": "Oil and gas", "operator": "Krizman Enterprises, LLC"}}, {"type": "Feature", "geometry": {"type": "Point", "coordinates": [-81.44546610832896, 40.633697304917035]}, "properties": {"API_WELLNO": "34157241660000", "WELL_NM": "JOHN EASTERDAY UNIT # 2", "WELL_NO": "2", "SLANT": "V", "WL_STATUS_DESC": "Producing", "MapSymbol_DESC": "Oil and gas", "api": "34157241660000", "name": "JOHN EASTERDAY UNIT # 2", "number": "2", "slant": "V", "status": "Producing", "type": "Oil and gas", "operator": "Krizman Enterprises, LLC"}}, {"type": "Feature", "geometry": {"type": "Point", "coordinates": [-81.45193241081445, 40.63265864500465]}, "properties": {"API_WELLNO": "34157241680000", "WELL_NM": "RANGE PETROLEUM UNIT # 1", "WELL_NO": "1", "SLANT": "V", "WL_STATUS_DESC": "Producing", "MapSymbol_DESC": "Oil and gas", "api": "34157241680000", "name": "RANGE PETROLEUM UNIT # 1", "number": "1", "slant": "V", "status": "Producing", "type": "Oil and gas", "operator": "Krizman Enterprises, LLC"}}, {"type": "Feature", "geometry": {"type": "Point", "coordinates": [-81.4509860572222, 40.63805774370301]}, "properties": {"API_WELLNO": "34157241670000", "WELL_NM": "JOHN EASTERDAY UNIT # 1", "WELL_NO": "1", "SLANT": "V", "WL_STATUS_DESC": "Producing", "MapSymbol_DESC": "Oil and gas", "api": "34157241670000", "name": "JOHN EASTERDAY UNIT # 1", "number": "1", "slant": "V", "status": "Producing", "type": "Oil and gas", "operator": "Krizman Enterprises, LLC"}}, {"type": "Feature", "geometry": {"type": "Point", "coordinates": [-81.44313186031769, 40.64226782805707]}, "properties": {"API_WELLNO": "34157241650000", "WELL_NM": "KRIZMAN ENTERPRISES UNIT # 1", "WELL_NO": "1", "SLANT": "V", "WL_STATUS_DESC": "Producing", "MapSymbol_DESC": "Oil and gas", "api": "34157241650000", "name": "KRIZMAN ENTERPRISES UNIT # 1", "number": "1", "slant": "V", "status": "Producing", "type": "Oil and gas", "operator": "Krizman Enterprises, LLC"}}, {"type": "Feature", "geometry": {"type": "Point", "coordinates": [-81.43222130286415, 40.637225510280366]}, "properties": {"API_WELLNO": "34157243840000", "WELL_NM": "RANGE PETROLEUM # 6", "WELL_NO": "6", "SLANT": "V", "WL_STATUS_DESC": "Producing", "MapSymbol_DESC": "Oil and gas", "api": "34157243840000", "name": "RANGE PETROLEUM # 6", "number": "6", "slant": "V", "status": "Producing", "type": "Oil and gas", "operator": "Krizman Enterprises, LLC"}}, {"type": "Feature", "geometry": {"type": "Point", "coordinates": [-81.41531375067729, 40.63986659361777]}, "properties": {"API_WELLNO": "34157243810000", "WELL_NM": "RANGE PETROLEUM # 7", "WELL_NO": "7", "SLANT": "V", "WL_STATUS_DESC": "Producing", "MapSymbol_DESC": "Oil and gas", "api": "34157243810000", "name": "RANGE PETROLEUM # 7", "number": "7", "slant": "V", "status": "Producing", "type": "Oil and gas", "operator": "Krizman Enterprises, LLC"}}, {"type": "Feature", "geometry": {"type": "Point", "coordinates": [-81.43808602965498, 40.619739078934806]}, "properties": {"API_WELLNO": "34157241370000", "WELL_NM": "RANGE PETROLEUM # 4", "WELL_NO": "4", "SLANT": "V", "WL_STATUS_DESC": "Producing", "MapSymbol_DESC": "Oil and gas", "api": "34157241370000", "name": "RANGE PETROLEUM # 4", "number": "4", "slant": "V", "status": "Producing", "type": "Oil and gas", "operator": "Krizman Enterprises, LLC"}}], "_meta": {"count": 10, "operator": "Krizman Enterprises, LLC", "note": "Vertical producing wells from ODNR DOG, per user Wells-by-Status view"}}