{"type":"FeatureCollection","features":[{"type":"Feature","properties":{"name":"Geauga"},"geometry":{"type":"Polygon","coordinates":[[[-81.003066,41.425928],[-81.003319,41.34786],[-81.391694,41.348272],[-81.391005,41.569716],[-81.29588,41.56995],[-81.294669,41.640889],[-81.101422,41.641457],[-81.102258,41.714307],[-81.003631,41.715137],[-81.003066,41.425928]]]}},{"type":"Feature","properties":{"name":"Hancock"},"geometry":{"type":"Polygon","coordinates":[[[-83.421054,41.16678],[-83.420319,40.991889],[-83.515883,40.818134],[-83.880063,40.819919],[-83.881149,41.167824],[-83.421054,41.16678]]]}},{"type":"Feature","properties":{"name":"Hardin"},"geometry":{"type":"Polygon","coordinates":[[[-83.520227,40.504077],[-83.879932,40.538708],[-83.880063,40.819919],[-83.515883,40.818134],[-83.495799,40.701617],[-83.419836,40.686823],[-83.415303,40.515495],[-83.418378,40.505232],[-83.520227,40.504077]]]}},{"type":"Feature","properties":{"name":"Holmes"},"geometry":{"type":"Polygon","coordinates":[[[-82.126199,40.668229],[-81.650045,40.668117],[-81.669654,40.443866],[-82.184607,40.45628],[-82.179069,40.573112],[-82.22011,40.568206],[-82.220665,40.66758],[-82.126199,40.668229]]]}},{"type":"Feature","properties":{"name":"Licking"},"geometry":{"type":"Polygon","coordinates":[[[-82.581813,39.930156],[-82.782495,39.939662],[-82.750747,40.276996],[-82.476114,40.264703],[-82.364344,40.240957],[-82.182823,40.238624],[-82.198772,39.95014],[-82.233974,39.91326],[-82.462813,39.93038],[-82.473423,39.925065],[-82.581813,39.930156]]]}},{"type":"Feature","properties":{"name":"Madison"},"geometry":{"type":"Polygon","coordinates":[[[-83.503714,40.111468],[-83.206273,40.107733],[-83.25383,40.049218],[-83.243702,39.812503],[-83.252435,39.695438],[-83.65333,39.716876],[-83.647169,39.773029],[-83.588041,39.768778],[-83.516155,40.010188],[-83.503714,40.111468]]]}},{"type":"Feature","properties":{"name":"Miami"},"geometry":{"type":"Polygon","coordinates":[[[-84.157223,39.88563],[-84.157671,39.92297],[-84.425902,39.919622],[-84.432575,40.197037],[-84.022919,40.183945],[-84.051039,39.879807],[-84.157223,39.88563]]]}},{"type":"Feature","properties":{"name":"Noble"},"geometry":{"type":"Polygon","coordinates":[[[-81.588185,39.586973],[-81.586132,39.663993],[-81.6432,39.665681],[-81.639886,39.75342],[-81.697442,39.755572],[-81.694146,39.842636],[-81.580313,39.839104],[-81.57859,39.897683],[-81.464108,39.89455],[-81.386006,39.950694],[-81.234053,39.95127],[-81.237316,39.867828],[-81.313591,39.869471],[-81.319125,39.70736],[-81.283075,39.605796],[-81.394934,39.601547],[-81.47316,39.645976],[-81.473471,39.583318],[-81.588185,39.586973]]]}},{"type":"Feature","properties":{"name":"Pike"},"geometry":{"type":"Polygon","coordinates":[[[-83.04362,38.956939],[-83.212107,38.960148],[-83.270817,39.015791],[-83.385637,39.055197],[-83.353531,39.197585],[-82.785891,39.168769],[-82.80709,38.948073],[-83.04362,38.956939]]]}},{"type":"Feature","properties":{"name":"Sandusky"},"geometry":{"type":"Polygon","coordinates":[[[-83.414626,41.500228],[-83.338196,41.457508],[-82.952224,41.458239],[-82.847713,41.430326],[-82.840087,41.255337],[-83.419843,41.254003],[-83.414626,41.500228]]]}},{"type":"Feature","properties":{"name":"Seneca"},"geometry":{"type":"Polygon","coordinates":[[[-83.305004,40.992787],[-83.420319,40.991889],[-83.419843,41.254003],[-82.840087,41.255337],[-82.829512,40.996624],[-83.305004,40.992787]]]}},{"type":"Feature","properties":{"name":"Union"},"geometry":{"type":"Polygon","coordinates":[[[-83.551338,40.22937],[-83.520227,40.504077],[-83.248183,40.507034],[-83.248428,40.244466],[-83.17233,40.244257],[-83.170208,40.106927],[-83.503714,40.111468],[-83.494498,40.225467],[-83.551338,40.22937]]]}},{"type":"Feature","properties":{"name":"Wayne"},"geometry":{"type":"Polygon","coordinates":[[[-82.1279,40.900902],[-82.129334,40.991807],[-81.688491,40.98859],[-81.647736,40.914386],[-81.650045,40.668117],[-82.126199,40.668229],[-82.1279,40.900902]]]}},{"type":"Feature","properties":{"name":"Wood"},"geometry":{"type":"Polygon","coordinates":[[[-83.703336,41.528952],[-83.569934,41.61715],[-83.415919,41.618938],[-83.421054,41.16678],[-83.881149,41.167824],[-83.883234,41.414503],[-83.712432,41.492856],[-83.703336,41.528952]]]}},{"type":"Feature","properties":{"name":"Allen"},"geometry":{"type":"Polygon","coordinates":[[[-84.340531,40.859099],[-84.109586,40.860994],[-84.109516,40.90473],[-83.880423,40.920429],[-83.880194,40.64469],[-84.107787,40.643069],[-84.222799,40.685957],[-84.396778,40.684926],[-84.397374,40.815941],[-84.340531,40.859099]]]}},{"type":"Feature","properties":{"name":"Brown"},"geometry":{"type":"Polygon","coordinates":[[[-83.903918,38.76815],[-83.962123,38.787384],[-84.052707,38.770542],[-83.99312,39.254235],[-83.865679,39.247333],[-83.872214,39.021304],[-83.673018,39.02043],[-83.706043,38.637101],[-83.769347,38.65522],[-83.777823,38.674453],[-83.85333,38.752572],[-83.903918,38.76815]]]}},{"type":"Feature","properties":{"name":"Clinton"},"geometry":{"type":"Polygon","coordinates":[[[-83.988613,39.444397],[-83.977005,39.569169],[-83.576286,39.544547],[-83.590878,39.378736],[-83.784793,39.262888],[-83.865679,39.247333],[-84.006782,39.255068],[-83.988613,39.444397]]]}},{"type":"Feature","properties":{"name":"Defiance"},"geometry":{"type":"Polygon","coordinates":[[[-84.803926,41.367959],[-84.803956,41.426044],[-84.228454,41.42781],[-84.228222,41.165862],[-84.341602,41.165524],[-84.341878,41.209197],[-84.457059,41.209434],[-84.457217,41.253485],[-84.803492,41.252562],[-84.803926,41.367959]]]}},{"type":"Feature","properties":{"name":"Fayette"},"geometry":{"type":"Polygon","coordinates":[[[-83.266737,39.516249],[-83.372714,39.377416],[-83.590878,39.378736],[-83.576286,39.544547],[-83.670196,39.550254],[-83.65333,39.716876],[-83.252435,39.695438],[-83.266737,39.516249]]]}},{"type":"Feature","properties":{"name":"Meigs"},"geometry":{"type":"Polygon","coordinates":[[[-81.749689,39.180742],[-81.747253,39.095378],[-81.812355,39.082078],[-81.814155,39.073478],[-81.803355,39.047678],[-81.764253,39.015279],[-81.756131,38.933545],[-81.759995,38.925828],[-81.874857,38.881174],[-81.908645,38.87846],[-81.926967,38.891602],[-81.926671,38.901311],[-81.90091,38.924338],[-81.900595,38.937671],[-81.935619,38.9895],[-82.002261,39.027878],[-82.035963,39.025478],[-82.051563,38.994378],[-82.093165,38.97098],[-82.098762,38.958288],[-82.095465,39.002778],[-82.322874,39.027674],[-82.306669,39.205494],[-81.749689,39.180742]]]}},{"type":"Feature","properties":{"name":"Mercer"},"geometry":{"type":"Polygon","coordinates":[[[-84.455713,40.567888],[-84.455418,40.358589],[-84.431632,40.354198],[-84.804119,40.352757],[-84.802119,40.728146],[-84.456172,40.728306],[-84.455713,40.567888]]]}},{"type":"Feature","properties":{"name":"Morrow"},"geometry":{"type":"Polygon","coordinates":[[[-82.727164,40.711203],[-82.627191,40.709416],[-82.623609,40.549879],[-82.646503,40.345076],[-82.929588,40.358123],[-82.924781,40.415004],[-83.020798,40.433795],[-82.958401,40.490664],[-82.957817,40.645148],[-82.859753,40.646395],[-82.858302,40.705019],[-82.727164,40.711203]]]}},{"type":"Feature","properties":{"name":"Muskingum"},"geometry":{"type":"Polygon","coordinates":[[[-82.076639,39.77096],[-82.072934,39.816227],[-82.170047,39.82075],[-82.162372,39.909374],[-82.233974,39.91326],[-82.198772,39.95014],[-82.187105,40.16688],[-81.716868,40.152863],[-81.728611,39.931728],[-81.694146,39.842636],[-81.697442,39.755572],[-82.076639,39.77096]]]}},{"type":"Feature","properties":{"name":"Paulding"},"geometry":{"type":"Polygon","coordinates":[[[-84.341602,41.165524],[-84.341911,40.990692],[-84.803313,40.989394],[-84.803492,41.252562],[-84.457217,41.253485],[-84.457059,41.209434],[-84.341878,41.209197],[-84.341602,41.165524]]]}},{"type":"Feature","properties":{"name":"Pickaway"},"geometry":{"type":"Polygon","coordinates":[[[-82.740729,39.46835],[-82.998204,39.480061],[-82.98456,39.506754],[-83.266737,39.516249],[-83.243702,39.812503],[-82.824254,39.794996],[-82.842953,39.56148],[-82.731518,39.554445],[-82.740729,39.46835]]]}},{"type":"Feature","properties":{"name":"Portage"},"geometry":{"type":"Polygon","coordinates":[[[-81.393429,40.988528],[-81.391694,41.348272],[-81.003319,41.34786],[-81.001695,40.987783],[-81.393429,40.988528]]]}},{"type":"Feature","properties":{"name":"Preble"},"geometry":{"type":"Polygon","coordinates":[[[-84.814189,39.785569],[-84.812411,39.916915],[-84.485367,39.918491],[-84.478927,39.56879],[-84.815036,39.567695],[-84.814189,39.785569]]]}},{"type":"Feature","properties":{"name":"Richland"},"geometry":{"type":"Polygon","coordinates":[[[-82.41648,40.902252],[-82.378397,40.727145],[-82.339211,40.726683],[-82.336962,40.555001],[-82.623609,40.549879],[-82.627191,40.709416],[-82.727164,40.711203],[-82.724792,40.995638],[-82.4179,40.992938],[-82.41648,40.902252]]]}},{"type":"Feature","properties":{"name":"Ross"},"geometry":{"type":"Polygon","coordinates":[[[-82.998204,39.480061],[-82.740729,39.46835],[-82.766692,39.167768],[-83.353531,39.197585],[-83.393511,39.267272],[-83.372714,39.377416],[-83.266737,39.516249],[-82.98456,39.506754],[-82.998204,39.480061]]]}},{"type":"Feature","properties":{"name":"Shelby"},"geometry":{"type":"Polygon","coordinates":[[[-84.022919,40.183945],[-84.432575,40.197037],[-84.434631,40.354259],[-84.338882,40.378734],[-84.339088,40.481281],[-84.002372,40.483115],[-84.022919,40.183945]]]}},{"type":"Feature","properties":{"name":"Stark"},"geometry":{"type":"Polygon","coordinates":[[[-81.467584,40.907965],[-81.420418,40.906504],[-81.393429,40.988528],[-81.086817,40.988158],[-81.087289,40.727816],[-81.237227,40.723542],[-81.24125,40.650534],[-81.649199,40.635106],[-81.647736,40.914386],[-81.467584,40.907965]]]}},{"type":"Feature","properties":{"name":"Tuscarawas"},"geometry":{"type":"Polygon","coordinates":[[[-81.649199,40.635106],[-81.317739,40.651579],[-81.321659,40.566648],[-81.264744,40.565042],[-81.275319,40.303434],[-81.334601,40.304316],[-81.338057,40.214253],[-81.622683,40.221308],[-81.61603,40.368118],[-81.712288,40.370804],[-81.709132,40.444775],[-81.669654,40.443866],[-81.649199,40.635106]]]}},{"type":"Feature","properties":{"name":"Van Wert"},"geometry":{"type":"Polygon","coordinates":[[[-84.340531,40.859099],[-84.397374,40.815941],[-84.396778,40.684926],[-84.45618,40.684862],[-84.456172,40.728306],[-84.802119,40.728146],[-84.803313,40.989394],[-84.399486,40.990315],[-84.398407,40.903265],[-84.340531,40.859099]]]}},{"type":"Feature","properties":{"name":"Washington"},"geometry":{"type":"Polygon","coordinates":[[[-81.371271,39.342062],[-81.393794,39.351706],[-81.412706,39.394618],[-81.435642,39.408474],[-81.456143,39.409274],[-81.542346,39.352874],[-81.605816,39.275851],[-81.695724,39.242859],[-81.721551,39.212448],[-81.721808,39.269597],[-81.853668,39.318165],[-81.844863,39.450216],[-81.823158,39.494072],[-81.708527,39.480775],[-81.714447,39.584236],[-81.473471,39.583318],[-81.47316,39.645976],[-81.394934,39.601547],[-81.283075,39.605796],[-81.246808,39.579037],[-81.036791,39.572118],[-81.038691,39.540464],[-81.215617,39.388602],[-81.270716,39.385914],[-81.347567,39.34577],[-81.371271,39.342062]]]}},{"type":"Feature","properties":{"name":"Williams"},"geometry":{"type":"Polygon","coordinates":[[[-84.341664,41.427568],[-84.803956,41.426044],[-84.806082,41.696089],[-84.399546,41.705758],[-84.380735,41.513942],[-84.341902,41.485519],[-84.341664,41.427568]]]}},{"type":"Feature","properties":{"name":"Wyandot"},"geometry":{"type":"Polygon","coordinates":[[[-83.11136,40.702915],[-83.304687,40.702006],[-83.419836,40.686823],[-83.495799,40.701617],[-83.515883,40.818134],[-83.420319,40.991889],[-83.112737,40.993447],[-83.11136,40.702915]]]}},{"type":"Feature","properties":{"name":"Adams"},"geometry":{"type":"Polygon","coordinates":[[[-83.642994,38.643273],[-83.663911,38.62793],[-83.706043,38.637101],[-83.673018,39.02043],[-83.611592,39.01889],[-83.385637,39.055197],[-83.270817,39.015791],[-83.265769,38.605278],[-83.2821,38.602987],[-83.320531,38.622713],[-83.333347,38.641562],[-83.369077,38.659334],[-83.520953,38.703045],[-83.626922,38.679387],[-83.642994,38.643273]]]}},{"type":"Feature","properties":{"name":"Ashland"},"geometry":{"type":"Polygon","coordinates":[[[-82.41648,40.902252],[-82.4179,40.992938],[-82.432852,40.992944],[-82.436914,41.065371],[-82.171492,41.063537],[-82.173359,40.992046],[-82.129334,40.991807],[-82.126199,40.668229],[-82.220665,40.66758],[-82.22011,40.568206],[-82.336962,40.555001],[-82.339211,40.726683],[-82.378397,40.727145],[-82.41648,40.902252]]]}},{"type":"Feature","properties":{"name":"Auglaize"},"geometry":{"type":"Polygon","coordinates":[[[-84.455713,40.567888],[-84.45618,40.684862],[-84.222799,40.685957],[-84.107787,40.643069],[-83.880194,40.64469],[-83.879932,40.538708],[-83.993867,40.535174],[-84.002372,40.483115],[-84.339088,40.481281],[-84.338882,40.378734],[-84.434387,40.354534],[-84.455418,40.358589],[-84.455713,40.567888]]]}},{"type":"Feature","properties":{"name":"Belmont"},"geometry":{"type":"Polygon","coordinates":[[[-80.705482,40.153047],[-80.733104,40.058772],[-80.740126,39.970793],[-80.808722,39.91257],[-80.812342,39.848845],[-81.237316,39.867828],[-81.225924,40.170075],[-80.705482,40.153047]]]}},{"type":"Feature","properties":{"name":"Butler"},"geometry":{"type":"Polygon","coordinates":[[[-84.348199,39.348512],[-84.353209,39.292287],[-84.630992,39.311942],[-84.819451,39.305153],[-84.815036,39.567695],[-84.478927,39.56879],[-84.479213,39.591024],[-84.365232,39.589493],[-84.332089,39.548803],[-84.348199,39.348512]]]}},{"type":"Feature","properties":{"name":"Carroll"},"geometry":{"type":"Polygon","coordinates":[[[-80.861994,40.599404],[-80.92092,40.556315],[-80.941911,40.4247],[-81.269951,40.433486],[-81.264744,40.565042],[-81.321659,40.566648],[-81.317739,40.651579],[-81.24125,40.650534],[-81.237227,40.723542],[-80.917172,40.726934],[-80.918125,40.643464],[-80.861994,40.599404]]]}},{"type":"Feature","properties":{"name":"Clark"},"geometry":{"type":"Polygon","coordinates":[[[-84.051039,39.879807],[-84.036069,40.040182],[-83.516155,40.010188],[-83.588041,39.768778],[-83.829495,39.797851],[-83.827425,39.822651],[-84.053736,39.850458],[-84.051039,39.879807]]]}},{"type":"Feature","properties":{"name":"Clermont"},"geometry":{"type":"Polygon","coordinates":[[[-84.259431,39.270796],[-83.99312,39.254235],[-84.052707,38.770542],[-84.212904,38.805707],[-84.231306,38.830552],[-84.234453,38.893226],[-84.319936,39.022081],[-84.316698,39.226944],[-84.259431,39.270796]]]}},{"type":"Feature","properties":{"name":"Columbiana"},"geometry":{"type":"Polygon","coordinates":[[[-80.519764,40.899858],[-80.518991,40.638801],[-80.56072,40.62368],[-80.627171,40.619936],[-80.667957,40.582496],[-80.861994,40.599404],[-80.918125,40.643464],[-80.917172,40.726934],[-81.087289,40.727816],[-81.086679,40.901609],[-80.519764,40.899858]]]}},{"type":"Feature","properties":{"name":"Crawford"},"geometry":{"type":"Polygon","coordinates":[[[-83.11136,40.702915],[-83.112737,40.993447],[-82.724792,40.995638],[-82.727164,40.711203],[-83.11136,40.702915]]]}},{"type":"Feature","properties":{"name":"Darke"},"geometry":{"type":"Polygon","coordinates":[[[-84.803918,40.310094],[-84.804119,40.352757],[-84.434631,40.354259],[-84.425902,39.919622],[-84.812411,39.916915],[-84.803918,40.310094]]]}},{"type":"Feature","properties":{"name":"Delaware"},"geometry":{"type":"Polygon","coordinates":[[[-82.749896,40.288636],[-82.761827,40.125855],[-83.169981,40.143087],[-83.17233,40.244257],[-83.248428,40.244466],[-83.248595,40.443989],[-83.020798,40.433795],[-82.924781,40.415004],[-82.929588,40.358123],[-82.744931,40.349603],[-82.749896,40.288636]]]}},{"type":"Feature","properties":{"name":"Erie"},"geometry":{"type":"MultiPolygon","coordinates":[[[[-82.700208,41.61219],[-82.677772,41.617986],[-82.688744,41.585896],[-82.735766,41.600982],[-82.718802,41.619629],[-82.700208,41.61219]]],[[[-82.952224,41.458239],[-82.90665,41.460215],[-82.828317,41.481802],[-82.694722,41.493945],[-82.616952,41.428425],[-82.499099,41.381541],[-82.460599,41.386316],[-82.348076,41.428431],[-82.342314,41.283554],[-82.841475,41.290023],[-82.847713,41.430326],[-82.952224,41.458239]]]]}},{"type":"Feature","properties":{"name":"Franklin"},"geometry":{"type":"Polygon","coordinates":[[[-82.811458,39.932374],[-82.824254,39.794996],[-83.243702,39.812503],[-83.25383,40.049218],[-83.206273,40.107733],[-83.170208,40.106927],[-83.169981,40.143087],[-82.761827,40.125855],[-82.782495,39.939662],[-82.810797,39.941162],[-82.811458,39.932374]]]}},{"type":"Feature","properties":{"name":"Hamilton"},"geometry":{"type":"Polygon","coordinates":[[[-84.510057,39.093593],[-84.620112,39.073457],[-84.684847,39.100459],[-84.718548,39.137059],[-84.744149,39.147458],[-84.766749,39.138558],[-84.78768,39.115297],[-84.820157,39.10548],[-84.819451,39.305153],[-84.630992,39.311942],[-84.391125,39.297585],[-84.259431,39.270796],[-84.316698,39.226944],[-84.319936,39.022081],[-84.432841,39.094261],[-84.493743,39.10246],[-84.510057,39.093593]]]}},{"type":"Feature","properties":{"name":"Highland"},"geometry":{"type":"Polygon","coordinates":[[[-83.372714,39.377416],[-83.393511,39.267272],[-83.353531,39.197585],[-83.385637,39.055197],[-83.611592,39.01889],[-83.872214,39.021304],[-83.865679,39.247333],[-83.784793,39.262888],[-83.590878,39.378736],[-83.372714,39.377416]]]}},{"type":"Feature","properties":{"name":"Huron"},"geometry":{"type":"Polygon","coordinates":[[[-82.829512,40.996624],[-82.841475,41.290023],[-82.342314,41.283554],[-82.336496,41.065761],[-82.436914,41.065371],[-82.432852,40.992944],[-82.829512,40.996624]]]}},{"type":"Feature","properties":{"name":"Jefferson"},"geometry":{"type":"Polygon","coordinates":[[[-80.617346,40.396004],[-80.602895,40.307069],[-80.616696,40.28027],[-80.652098,40.24497],[-80.703052,40.157231],[-80.882892,40.159495],[-80.865504,40.422929],[-80.941911,40.4247],[-80.92092,40.556315],[-80.861994,40.599404],[-80.667957,40.582496],[-80.599194,40.482566],[-80.617346,40.396004]]]}},{"type":"Feature","properties":{"name":"Lawrence"},"geometry":{"type":"Polygon","coordinates":[[[-82.50667,38.410092],[-82.560664,38.404338],[-82.593673,38.421809],[-82.690509,38.536576],[-82.724846,38.5576],[-82.789776,38.559951],[-82.816012,38.570733],[-82.740383,38.597167],[-82.763895,38.679974],[-82.706823,38.677495],[-82.650039,38.849073],[-82.575583,38.844478],[-82.582683,38.779077],[-82.483579,38.772278],[-82.472478,38.682279],[-82.354468,38.67607],[-82.361674,38.585182],[-82.287102,38.582588],[-82.323999,38.449268],[-82.50667,38.410092]]]}},{"type":"Feature","properties":{"name":"Lorain"},"geometry":{"type":"Polygon","coordinates":[[[-81.96813,41.506422],[-81.971262,41.351268],[-81.877066,41.343557],[-81.878053,41.275044],[-81.972485,41.274829],[-81.973895,41.199831],[-82.072465,41.19985],[-82.074266,41.136456],[-82.169875,41.137102],[-82.171492,41.063537],[-82.336496,41.065761],[-82.348076,41.428431],[-82.268479,41.430842],[-82.184774,41.47404],[-82.011966,41.515639],[-81.96813,41.506422]]]}},{"type":"Feature","properties":{"name":"Mahoning"},"geometry":{"type":"Polygon","coordinates":[[[-80.519167,41.133388],[-80.519764,40.899858],[-81.086679,40.901609],[-81.086817,40.988158],[-81.001695,40.987783],[-81.00229,41.134189],[-80.519167,41.133388]]]}},{"type":"Feature","properties":{"name":"Marion"},"geometry":{"type":"Polygon","coordinates":[[[-83.419836,40.686823],[-83.304687,40.702006],[-82.858302,40.705019],[-82.859753,40.646395],[-82.957817,40.645148],[-82.958401,40.490664],[-83.020798,40.433795],[-83.248595,40.443989],[-83.248183,40.507034],[-83.418378,40.505232],[-83.419836,40.686823]]]}},{"type":"Feature","properties":{"name":"Athens"},"geometry":{"type":"Polygon","coordinates":[[[-82.055779,39.460053],[-81.844863,39.450216],[-81.853668,39.318165],[-81.721808,39.269597],[-81.721551,39.212448],[-81.749689,39.180742],[-82.268583,39.20376],[-82.260243,39.292915],[-82.298476,39.294996],[-82.28041,39.472906],[-82.167379,39.466307],[-82.159161,39.556574],[-82.047528,39.550825],[-82.055779,39.460053]]]}},{"type":"Feature","properties":{"name":"Champaign"},"geometry":{"type":"Polygon","coordinates":[[[-83.551338,40.22937],[-83.494498,40.225467],[-83.516155,40.010188],[-84.036069,40.040182],[-84.014763,40.273459],[-83.551338,40.22937]]]}},{"type":"Feature","properties":{"name":"Coshocton"},"geometry":{"type":"Polygon","coordinates":[[[-82.187105,40.16688],[-82.182823,40.238624],[-82.195911,40.239071],[-82.184607,40.45628],[-81.709132,40.444775],[-81.712288,40.370804],[-81.61603,40.368118],[-81.622683,40.221308],[-81.716276,40.152166],[-82.187105,40.16688]]]}},{"type":"Feature","properties":{"name":"Fairfield"},"geometry":{"type":"Polygon","coordinates":[[[-82.824254,39.794996],[-82.810797,39.941162],[-82.473423,39.925065],[-82.462813,39.93038],[-82.472402,39.837223],[-82.396594,39.833057],[-82.374531,39.654959],[-82.490329,39.661704],[-82.496123,39.602849],[-82.617546,39.608605],[-82.620088,39.563987],[-82.731518,39.554445],[-82.842953,39.56148],[-82.824254,39.794996]]]}},{"type":"Feature","properties":{"name":"Guernsey"},"geometry":{"type":"Polygon","coordinates":[[[-81.694146,39.842636],[-81.728611,39.931728],[-81.716276,40.152166],[-81.622683,40.221308],[-81.338057,40.214253],[-81.339565,40.171999],[-81.225924,40.170075],[-81.234053,39.95127],[-81.386006,39.950694],[-81.464108,39.89455],[-81.57859,39.897683],[-81.580313,39.839104],[-81.694146,39.842636]]]}},{"type":"Feature","properties":{"name":"Henry"},"geometry":{"type":"Polygon","coordinates":[[[-84.228222,41.165862],[-84.228454,41.42781],[-84.341664,41.427568],[-84.341902,41.485519],[-83.882943,41.487543],[-83.881149,41.167824],[-84.228222,41.165862]]]}},{"type":"Feature","properties":{"name":"Knox"},"geometry":{"type":"Polygon","coordinates":[[[-82.364344,40.240957],[-82.476114,40.264703],[-82.750747,40.276996],[-82.744931,40.349603],[-82.646503,40.345076],[-82.623609,40.549879],[-82.374898,40.550871],[-82.179069,40.573112],[-82.195911,40.239071],[-82.364344,40.240957]]]}},{"type":"Feature","properties":{"name":"Logan"},"geometry":{"type":"Polygon","coordinates":[[[-83.551338,40.22937],[-84.014763,40.273459],[-83.993867,40.535174],[-83.879932,40.538708],[-83.520227,40.504077],[-83.551338,40.22937]]]}},{"type":"Feature","properties":{"name":"Medina"},"geometry":{"type":"Polygon","coordinates":[[[-81.973895,41.199831],[-81.972485,41.274829],[-81.68495,41.277146],[-81.688491,40.98859],[-82.173359,40.992046],[-82.169875,41.137102],[-82.074266,41.136456],[-82.072465,41.19985],[-81.973895,41.199831]]]}},{"type":"Feature","properties":{"name":"Morgan"},"geometry":{"type":"Polygon","coordinates":[[[-81.844863,39.450216],[-82.055779,39.460053],[-82.024219,39.724686],[-82.076639,39.77096],[-81.639886,39.75342],[-81.6432,39.665681],[-81.586132,39.663993],[-81.588185,39.586973],[-81.714447,39.584236],[-81.708527,39.480775],[-81.823158,39.494072],[-81.844863,39.450216]]]}},{"type":"Feature","properties":{"name":"Perry"},"geometry":{"type":"Polygon","coordinates":[[[-82.076639,39.77096],[-82.024219,39.724686],[-82.047528,39.550825],[-82.159161,39.556574],[-82.37989,39.596738],[-82.374531,39.654959],[-82.396594,39.833057],[-82.472402,39.837223],[-82.462813,39.93038],[-82.162372,39.909374],[-82.170047,39.82075],[-82.072934,39.816227],[-82.076639,39.77096]]]}},{"type":"Feature","properties":{"name":"Putnam"},"geometry":{"type":"Polygon","coordinates":[[[-84.341602,41.165524],[-83.881149,41.167824],[-83.880423,40.920429],[-84.109516,40.90473],[-84.109586,40.860994],[-84.340531,40.859099],[-84.398407,40.903265],[-84.399486,40.990315],[-84.341911,40.990692],[-84.341602,41.165524]]]}},{"type":"Feature","properties":{"name":"Summit"},"geometry":{"type":"Polygon","coordinates":[[[-81.590542,41.277554],[-81.598061,41.350913],[-81.391694,41.348272],[-81.393429,40.988528],[-81.420418,40.906504],[-81.647736,40.914386],[-81.688491,40.98859],[-81.68495,41.277146],[-81.590542,41.277554]]]}},{"type":"Feature","properties":{"name":"Warren"},"geometry":{"type":"Polygon","coordinates":[[[-83.988613,39.444397],[-84.006782,39.255068],[-84.259431,39.270796],[-84.353209,39.292287],[-84.332089,39.548803],[-84.365232,39.589493],[-83.977005,39.569169],[-83.988613,39.444397]]]}},{"type":"Feature","properties":{"name":"Lake"},"geometry":{"type":"Polygon","coordinates":[[[-81.391005,41.569716],[-81.487842,41.570051],[-81.48864,41.631348],[-81.442645,41.673255],[-81.286925,41.760243],[-81.248672,41.761291],[-81.002117,41.854908],[-81.003631,41.715137],[-81.102258,41.714307],[-81.101422,41.641457],[-81.294669,41.640889],[-81.29588,41.56995],[-81.391005,41.569716]]]}},{"type":"Feature","properties":{"name":"Lucas"},"geometry":{"type":"Polygon","coordinates":[[[-83.453832,41.732647],[-83.446032,41.706847],[-83.409531,41.691247],[-83.357073,41.687763],[-83.341817,41.693518],[-83.337977,41.70341],[-83.326825,41.701562],[-83.23166,41.644218],[-83.165713,41.623246],[-83.569934,41.61715],[-83.703336,41.528952],[-83.712432,41.492856],[-83.883234,41.414503],[-83.880387,41.720086],[-83.453832,41.732647]]]}},{"type":"Feature","properties":{"name":"Monroe"},"geometry":{"type":"Polygon","coordinates":[[[-80.812342,39.848845],[-80.829764,39.711839],[-80.88036,39.620706],[-80.943782,39.606926],[-81.038691,39.540464],[-81.036791,39.572118],[-81.246808,39.579037],[-81.283075,39.605796],[-81.319125,39.70736],[-81.313591,39.869471],[-80.812342,39.848845]]]}},{"type":"Feature","properties":{"name":"Montgomery"},"geometry":{"type":"Polygon","coordinates":[[[-84.157223,39.88563],[-84.051039,39.879807],[-84.055238,39.835958],[-84.092938,39.838345],[-84.114195,39.577983],[-84.479213,39.591024],[-84.485367,39.918491],[-84.157671,39.92297],[-84.157223,39.88563]]]}},{"type":"Feature","properties":{"name":"Ottawa"},"geometry":{"type":"MultiPolygon","coordinates":[[[[-82.824731,41.659428],[-82.794198,41.662496],[-82.842099,41.628323],[-82.843602,41.647009],[-82.824731,41.659428]]],[[[-82.803341,41.693837],[-82.782719,41.694003],[-82.813781,41.670594],[-82.826443,41.684774],[-82.803341,41.693837]]],[[[-82.813489,41.723468],[-82.808869,41.708333],[-82.835118,41.708971],[-82.82572,41.72281],[-82.813489,41.723468]]],[[[-82.828317,41.481802],[-82.920239,41.458443],[-83.338196,41.457508],[-83.414626,41.500228],[-83.415919,41.618938],[-83.165713,41.623246],[-83.103928,41.613558],[-83.066593,41.59534],[-83.043079,41.567963],[-82.999916,41.538534],[-82.934369,41.514353],[-82.875229,41.529684],[-82.85677,41.548262],[-82.859531,41.576371],[-82.834101,41.587587],[-82.785496,41.540675],[-82.749907,41.54647],[-82.717878,41.54193],[-82.710935,41.536648],[-82.719811,41.510296],[-82.710013,41.49759],[-82.694722,41.493945],[-82.828317,41.481802]]]]}},{"type":"Feature","properties":{"name":"Scioto"},"geometry":{"type":"Polygon","coordinates":[[[-83.04362,38.956939],[-82.753391,38.945373],[-82.76069,38.854875],[-82.650039,38.849073],[-82.706823,38.677495],[-82.763895,38.679974],[-82.740383,38.597167],[-82.816012,38.570733],[-82.839538,38.586159],[-82.853554,38.610926],[-82.869592,38.678177],[-82.871292,38.739376],[-82.894193,38.756576],[-82.979395,38.725976],[-83.030702,38.72572],[-83.142836,38.625076],[-83.265769,38.605278],[-83.270817,39.015791],[-83.212107,38.960148],[-83.04362,38.956939]]]}},{"type":"Feature","properties":{"name":"Trumbull"},"geometry":{"type":"Polygon","coordinates":[[[-80.519345,41.34074],[-80.519167,41.133388],[-81.00229,41.134189],[-81.003125,41.501685],[-80.519225,41.499924],[-80.519345,41.34074]]]}},{"type":"Feature","properties":{"name":"Vinton"},"geometry":{"type":"Polygon","coordinates":[[[-82.289663,39.384195],[-82.298476,39.294996],[-82.260243,39.292915],[-82.263767,39.253786],[-82.268583,39.20376],[-82.306669,39.205494],[-82.322874,39.027674],[-82.435309,39.035079],[-82.424677,39.137972],[-82.536306,39.180757],[-82.762892,39.207967],[-82.748591,39.368165],[-82.51758,39.369468],[-82.514479,39.395767],[-82.289663,39.384195]]]}},{"type":"Feature","properties":{"name":"Ashtabula"},"geometry":{"type":"Polygon","coordinates":[[[-80.973674,41.858122],[-80.900342,41.868912],[-80.814943,41.897694],[-80.800794,41.909635],[-80.782052,41.906635],[-80.720816,41.919744],[-80.519425,41.977523],[-80.519225,41.499924],[-81.003125,41.501685],[-81.002117,41.854908],[-80.973674,41.858122]]]}},{"type":"Feature","properties":{"name":"Cuyahoga"},"geometry":{"type":"Polygon","coordinates":[[[-81.878053,41.275044],[-81.877066,41.343557],[-81.971262,41.351268],[-81.96813,41.506422],[-81.937862,41.491443],[-81.87736,41.483445],[-81.794157,41.496648],[-81.738755,41.48855],[-81.664851,41.53145],[-81.633652,41.540458],[-81.529742,41.614548],[-81.48864,41.631348],[-81.487842,41.570051],[-81.391005,41.569716],[-81.391694,41.348272],[-81.598061,41.350913],[-81.590542,41.277554],[-81.878053,41.275044]]]}},{"type":"Feature","properties":{"name":"Fulton"},"geometry":{"type":"Polygon","coordinates":[[[-83.880387,41.720086],[-83.882943,41.487543],[-84.341902,41.485519],[-84.380735,41.513942],[-84.399546,41.705758],[-83.880387,41.720086]]]}},{"type":"Feature","properties":{"name":"Gallia"},"geometry":{"type":"Polygon","coordinates":[[[-82.139279,38.866407],[-82.221566,38.787187],[-82.220449,38.773739],[-82.198882,38.757725],[-82.182467,38.708782],[-82.172066,38.619284],[-82.177267,38.603784],[-82.193824,38.593096],[-82.26207,38.598183],[-82.287102,38.582588],[-82.361674,38.585182],[-82.354468,38.67607],[-82.472478,38.682279],[-82.483579,38.772278],[-82.582683,38.779077],[-82.575583,38.844478],[-82.455179,38.844577],[-82.435309,39.035079],[-82.095465,39.002778],[-82.098762,38.958288],[-82.139279,38.866407]]]}},{"type":"Feature","properties":{"name":"Harrison"},"geometry":{"type":"Polygon","coordinates":[[[-81.035504,40.164874],[-81.339565,40.171999],[-81.334601,40.304316],[-81.275319,40.303434],[-81.269951,40.433486],[-80.865504,40.422929],[-80.882892,40.159495],[-81.035504,40.164874]]]}},{"type":"Feature","properties":{"name":"Hocking"},"geometry":{"type":"Polygon","coordinates":[[[-82.374531,39.654959],[-82.37989,39.596738],[-82.159161,39.556574],[-82.167379,39.466307],[-82.28041,39.472906],[-82.289663,39.384195],[-82.514479,39.395767],[-82.51758,39.369468],[-82.748591,39.368165],[-82.731518,39.554445],[-82.620088,39.563987],[-82.617546,39.608605],[-82.496123,39.602849],[-82.490329,39.661704],[-82.374531,39.654959]]]}},{"type":"Feature","properties":{"name":"Jackson"},"geometry":{"type":"Polygon","coordinates":[[[-82.785891,39.168769],[-82.766692,39.167768],[-82.762892,39.207967],[-82.536306,39.180757],[-82.424677,39.137972],[-82.455179,38.844577],[-82.76069,38.854875],[-82.753391,38.945373],[-82.80709,38.948073],[-82.785891,39.168769]]]}},{"type":"Feature","properties":{"name":"Greene"},"geometry":{"type":"Polygon","coordinates":[[[-84.096937,39.793033],[-84.092938,39.838345],[-84.055238,39.835958],[-84.053736,39.850458],[-83.827425,39.822651],[-83.829495,39.797851],[-83.647169,39.773029],[-83.670196,39.550254],[-84.114195,39.577983],[-84.096937,39.793033]]]}}]}